{"evidence_table":[{"agency":"USFS","confidence":"unverified","last_verified":null,"notes":"","retrieved_at":"2026-09-27T14:15:40.744887Z","source_url":"https://apps.fs.usda.gov/arcx/rest/services/EDW/EDW_RecInfraRecreationSites_02/MapServer/0","verification_method":"source_fetch"}],"features":[{"geometry":{"coordinates":[-105.137358,39.371238],"type":"Point"},"properties":{"activity_type_list":"No Data","directions":null,"evidence":0,"fee_description":null,"id":"recreation-3294909","important_info":null,"name":"RUSSELL GULCH","op_status_reason":null,"open_season":null,"rec1stop_url":null,"restrictions":null,"restroom_availability":null,"seasonal_operational_status":"OPEN","site_name":"RUSSELL GULCH","site_type":"TRAILHEAD","usda_portal_url":null,"water_availability":null},"type":"Feature"},{"geometry":{"coordinates":[-105.176635,39.348827],"type":"Point"},"properties":{"activity_type_list":"CAMPING, TENT","directions":"From Denver: Take U.S. Highway 285 to Pine Junction. Take south on Jefferson County Road 126 and drive for approximately 25 miles to Douglas County 67 at Deckers. Campground is located 10 miles north of Deckers on the left hand side. From Sedalia: Take U.S. Highway 67 from Sedalia to Sprucewood. Stay on 67 South (straight) until you reach pavement at the South Platte River. Go 4 mile nouth to Osprey Campground, which is on the left hand side. ","evidence":0,"fee_description":null,"id":"recreation-3295146","important_info":"No water available.  Portable toilets available during full service camping.","name":"OSPREY","op_status_reason":null,"open_season":"May 1, 2021 ","rec1stop_url":"https://www.recreation.gov/camping/campgrounds/10165515","restrictions":"REMEMBER!  You must be in a designated campground to stay overnight. Fires are permitted ONLY in the campgrounds, no fires are allowed in the picnic areas. NO SHOOTING ALLOWED! Much of the property along the river is privately owned. Please respect the posted signs.   Additional, the following restrictions apply to this campground :   Maximum 8 persons per site: 2 tents and 2 vehicles.   Dogs must be leashed at all times.   No discharge of firearms or fireworks.  Only licensed vehicles can operate inside campground.   ","restroom_availability":"Portable toilets available during summer season ","seasonal_operational_status":"OPEN","site_name":"OSPREY","site_type":"CAMPGROUND","usda_portal_url":"https://www.fs.usda.gov/recarea/psicc/recarea/?recid=12975","water_availability":"NO WATER"},"type":"Feature"},{"geometry":{"coordinates":[-105.078828,39.360016],"type":"Point"},"properties":{"activity_type_list":"No Data","directions":null,"evidence":0,"fee_description":null,"id":"recreation-3295220","important_info":null,"name":"MILE AND A HALF","op_status_reason":null,"open_season":null,"rec1stop_url":null,"restrictions":null,"restroom_availability":null,"seasonal_operational_status":"OPEN","site_name":"MILE AND A HALF","site_type":"TRAILHEAD","usda_portal_url":null,"water_availability":null},"type":"Feature"},{"geometry":{"coordinates":[-105.105102,39.27178],"type":"Point"},"properties":{"activity_type_list":"CAMPING, TENT | CAMPING, TRAILER | CAMPING, VEHICLE | HIKING | HUNTING | NATURE STUDY | PHOTOGRAPHY | PICNICKING | SPECIAL LANDCRAFT (OHVS)","directions":"To reach this area, take U.S. Highway 85 south to Sedalia. Turn west on Highway 67 for 10 miles to the junction with Rampart Range Road. Turn south onto Rampart Range Road for 10 miles. Devil s Head Campground will have a signed turn off. ","evidence":0,"fee_description":null,"id":"recreation-3295555","important_info":"No water on site.","name":"DEVILS HEAD CG","op_status_reason":null,"open_season":"Memorial Day Weekend ","rec1stop_url":null,"restrictions":"The following restrictions apply to this campground :   Maximum 8 persons per site, 2 tents and 2 vehicles or 1 recreation vehicle.   Dogs must be leashed at all times.   No discharge of firearms or fireworks.  Only street licensed vehicles are permitted within the Devil's Head Campground. Consult the current Motor Vehicle Use Map (MVUM) for specific roads and trails open to off-road vehicles.   Camping is NOT ALLOWED behind a LOCKED GATE.    ","restroom_availability":"Vault toilets ","seasonal_operational_status":"OPEN","site_name":"DEVILS HEAD CG","site_type":"CAMPGROUND","usda_portal_url":"https://www.fs.usda.gov/recarea/psicc/recarea/?recid=12925","water_availability":"No water"},"type":"Feature"},{"geometry":{"coordinates":[-105.099121,39.38006],"type":"Point"},"properties":{"activity_type_list":"CAMPING, TENT | CAMPING, TRAILER | CAMPING, VEHICLE","directions":"To reach this area, take U.S. Highway 85 south to Sedalia, then take Highway 67. The Indian Creek complex is located less than a mile west of the Rampart Range Road Junction on Highway 67. ","evidence":0,"fee_description":null,"id":"recreation-3296016","important_info":" Water availability is questionable due to weather and water level. Please plan on bringing drinking water with you when utilizing these sites.","name":"INDIAN CREEK","op_status_reason":null,"open_season":"May 28, 2021 ","rec1stop_url":"https://www.recreation.gov/camping/campgrounds/233883","restrictions":"The following restrictions apply to this campground :   Maximum 8 persons per site, 2 tents and 2 vehicles or 1 recreation vehicle.  Max RV 20    Dogs must be leashed at all times.   No discharge of firearms or fireworks.  Only licensed vehicles can operate inside campground.   Camping is NOT ALLOWED behind a LOCKED GATE.    ","restroom_availability":"Vault toilet ","seasonal_operational_status":"OPEN","site_name":"INDIAN CREEK","site_type":"CAMPGROUND","usda_portal_url":"https://www.fs.usda.gov/recarea/psicc/recarea/?recid=12951","water_availability":"Yes"},"type":"Feature"},{"geometry":{"coordinates":[-105.099974,39.379393],"type":"Point"},"properties":{"activity_type_list":"No Data","directions":null,"evidence":0,"fee_description":null,"id":"recreation-3296151","important_info":null,"name":"INDIAN CREEK EQUESTRIAN","op_status_reason":null,"open_season":null,"rec1stop_url":null,"restrictions":"Parking and camping in designated sites only.   Trailhead and OHV staging areas are open Sunrise to Sunset hours only.  Please report after hours activities to the Douglas County Sherrif's Department at Emergency 9-1-1 or 303-660-7500.   ","restroom_availability":"Vault toilet ","seasonal_operational_status":"OPEN","site_name":"INDIAN CREEK EQUESTRIAN","site_type":"TRAILHEAD","usda_portal_url":"https://www.fs.usda.gov/recarea/psicc/recarea/?recid=12953","water_availability":"No water"},"type":"Feature"},{"geometry":{"coordinates":[-105.085712,39.348076],"type":"Point"},"properties":{"activity_type_list":"No Data","directions":null,"evidence":0,"fee_description":null,"id":"recreation-3299112","important_info":null,"name":"SUNSET POINT","op_status_reason":null,"open_season":null,"rec1stop_url":null,"restrictions":null,"restroom_availability":null,"seasonal_operational_status":"OPEN","site_name":"SUNSET POINT","site_type":"TRAILHEAD","usda_portal_url":null,"water_availability":null},"type":"Feature"},{"geometry":{"coordinates":[-105.167355,39.400091],"type":"Point"},"properties":{"activity_type_list":"No Data","directions":null,"evidence":0,"fee_description":null,"id":"recreation-3299277","important_info":null,"name":"SOUTH PLATTE","op_status_reason":null,"open_season":null,"rec1stop_url":null,"restrictions":null,"restroom_availability":null,"seasonal_operational_status":"OPEN","site_name":"SOUTH PLATTE","site_type":"TRAILHEAD","usda_portal_url":null,"water_availability":null},"type":"Feature"},{"geometry":{"coordinates":[-105.17896,39.342759],"type":"Point"},"properties":{"activity_type_list":"No Data","directions":null,"evidence":0,"fee_description":null,"id":"recreation-3300079","important_info":null,"name":"WILLOW BEND","op_status_reason":null,"open_season":"January 1, 2021 ","rec1stop_url":null,"restrictions":null,"restroom_availability":"Vault toilet ","seasonal_operational_status":"OPEN","site_name":"WILLOW BEND","site_type":"PICNIC SITE","usda_portal_url":"https://www.fs.usda.gov/recarea/psicc/recarea/?recid=13005","water_availability":"No water"},"type":"Feature"},{"geometry":{"coordinates":[-105.167742,39.35395],"type":"Point"},"properties":{"activity_type_list":"No Data","directions":null,"evidence":0,"fee_description":null,"id":"recreation-3301118","important_info":null,"name":"NIGHTHAWK","op_status_reason":null,"open_season":null,"rec1stop_url":null,"restrictions":null,"restroom_availability":null,"seasonal_operational_status":"OPEN","site_name":"NIGHTHAWK","site_type":"RECREATION RESIDENCE","usda_portal_url":null,"water_availability":null},"type":"Feature"},{"geometry":{"coordinates":[-105.125706,39.367669],"type":"Point"},"properties":{"activity_type_list":"No Data","directions":null,"evidence":0,"fee_description":null,"id":"recreation-3301271","important_info":null,"name":"COLUMBINE BOWMEN","op_status_reason":null,"open_season":null,"rec1stop_url":null,"restrictions":null,"restroom_availability":null,"seasonal_operational_status":"OPEN","site_name":"COLUMBINE BOWMEN","site_type":"TARGET RANGE","usda_portal_url":null,"water_availability":null},"type":"Feature"},{"geometry":{"coordinates":[-105.065768,39.315439],"type":"Point"},"properties":{"activity_type_list":"No Data","directions":null,"evidence":0,"fee_description":null,"id":"recreation-3301481","important_info":null,"name":"TOMAHAWK","op_status_reason":null,"open_season":null,"rec1stop_url":null,"restrictions":null,"restroom_availability":null,"seasonal_operational_status":"OPEN","site_name":"TOMAHAWK","site_type":"TRAILHEAD","usda_portal_url":null,"water_availability":null},"type":"Feature"},{"geometry":{"coordinates":[-105.086932,39.327288],"type":"Point"},"properties":{"activity_type_list":"No Data","directions":"To reach this area, take U.S. Highway 85 (Santa Fe) south to Sedalia. Turn west on Highway 67 for 10 miles to the junction with Rampart Range Road. Flat Rock Trailhead is located approximately 6 miles from south of Rampart Range Road. ","evidence":0,"fee_description":null,"id":"recreation-3302920","important_info":null,"name":"FLAT ROCKS TH","op_status_reason":null,"open_season":null,"rec1stop_url":null,"restrictions":"The following restrictions apply to the Rampart Range Motorized Recreation Area:     A Colorado OHV (Off Highway Vehicle) registration or current license plate with OHV permit is required to ride on the trails. Contact Colorado State Parks at 303-866-3437 for OHV registration information.Contact Colorado State Parks at 303-866-3437 for OHV registration information.  A current license plate and valid driver’s license are required to ride on the roads.  Only vehicles 50” or less in width can be on trails.  Ride on designated trails only.  All vehicles must have a U.S. Forest Service approved  SPARK ARRESTOR.    ","restroom_availability":"No ","seasonal_operational_status":"OPEN","site_name":"FLAT ROCKS TH","site_type":"TRAILHEAD","usda_portal_url":"https://www.fs.usda.gov/recarea/psicc/recarea/?recid=12933","water_availability":"No"},"type":"Feature"},{"geometry":{"coordinates":[-105.078725,39.358136],"type":"Point"},"properties":{"activity_type_list":"No Data","directions":"To reach this area, take U.S. Highway 85 (Santa Fe) south to Sedalia. Turn west on Highway 67 for 10 miles to the junction with Rampart Range Road. Trailhead is located approximately 3 miles from south of Rampart Range Road. ","evidence":0,"fee_description":null,"id":"recreation-3304006","important_info":null,"name":"GARBER CREEK","op_status_reason":null,"open_season":null,"rec1stop_url":null,"restrictions":"The following restrictions apply to the Rampart Range Motorized Recreation Area:     A Colorado OHV (Off Highway Vehicle) registration or current license plate with OHV permit is required to ride on the trails. Contact Colorado State Parks at 303-866-3437 for OHV registration information. Contact Colorado State Parks at 303-866-3437 for OHV registration information.  A current license plate and valid driver’s license are required to ride on the roads.  Only vehicles 50” or less in width can be on trails.  All vehicles must have a U.S. Forest Service approved  SPARK ARRESTOR.   Ride on designated trails.   ","restroom_availability":"No ","seasonal_operational_status":"OPEN","site_name":"GARBER CREEK","site_type":"TRAILHEAD","usda_portal_url":"https://www.fs.usda.gov/recarea/psicc/recarea/?recid=12936","water_availability":"No"},"type":"Feature"},{"geometry":{"coordinates":[-105.103881,39.378624],"type":"Point"},"properties":{"activity_type_list":"HORSEBACK RIDING","directions":"Drive south from Denver, Colorado on U.S. Hwy 85 (Santa Fe St.) to Sedalia. Turn right (west) onto Douglas County Road 67. Drive on Hwy 67 slightly over 10 miles (from Sedalia) to the Indian Creek Campground, which is located approximately 2 miles. Turn right into the campground. There is a small fee parking area outside the campground. The trailhead is just to the right of the parking area. Both the Indian Creek Campground and the Equestrian Campground are fee areas–even for parking. ","evidence":0,"fee_description":null,"id":"recreation-3304676","important_info":null,"name":"INDIAN CREEK (EQUESTRIAN)","op_status_reason":null,"open_season":"May 28, 2021 ","rec1stop_url":null,"restrictions":"The following restrictions apply to this campground :   Please use  certified weed-free hay only.   Maximum parking spur is 60   Maximum 8 persons per site, 2 tents and 2 vehicles or 1 recreation vehicle.   Dogs must be leashed at all times.   No discharge of firearms or fireworks.  Only licensed vehicles can operate inside campground.   Camping is NOT ALLOWED behind a LOCKED GATE.    ","restroom_availability":"Vault toilet ","seasonal_operational_status":"OPEN","site_name":"INDIAN CREEK (EQUESTRIAN)","site_type":"HORSE CAMP","usda_portal_url":"https://www.fs.usda.gov/recarea/psicc/recarea/?recid=12952","water_availability":"Yes"},"type":"Feature"},{"geometry":{"coordinates":[-105.096013,39.249403],"type":"Point"},"properties":{"activity_type_list":"No Data","directions":null,"evidence":0,"fee_description":null,"id":"recreation-3305503","important_info":null,"name":"ZINN RANCH","op_status_reason":null,"open_season":null,"rec1stop_url":null,"restrictions":null,"restroom_availability":null,"seasonal_operational_status":"CLOSED","site_name":"ZINN RANCH","site_type":"DOCUMENTARY SITE","usda_portal_url":null,"water_availability":null},"type":"Feature"},{"geometry":{"coordinates":[-105.085258,39.326219],"type":"Point"},"properties":{"activity_type_list":"No Data","directions":"To reach this area, take U.S. Highway 85 south to Sedalia. Turn west on Highway 67 for 10 miles to the junction with Rampart Range Road. Turn south onto Rampart Range Road for 5 miles. Located on the east side of the Rampart Range Road just south of Flat Rocks Campground. ","evidence":0,"fee_description":null,"id":"recreation-3305648","important_info":null,"name":"FLAT ROCKS OS","op_status_reason":null,"open_season":"April/May ","rec1stop_url":null,"restrictions":null,"restroom_availability":null,"seasonal_operational_status":"OPEN","site_name":"FLAT ROCKS OS","site_type":"OBSERVATION SITE","usda_portal_url":"https://www.fs.usda.gov/recarea/psicc/recarea/?recid=12932","water_availability":null},"type":"Feature"},{"geometry":{"coordinates":[-105.09197,39.285741],"type":"Point"},"properties":{"activity_type_list":"No Data","directions":"To reach this area, take U.S. Highway 85 (Santa Fe) south to Sedalia. Turn west on Highway 67 for 10 miles to the junction with Rampart Range Road. Dutch Fred Trailhead is located approximately 8 miles from south of Rampart Range Road. ","evidence":0,"fee_description":null,"id":"recreation-3306075","important_info":null,"name":"DUTCH FRED","op_status_reason":null,"open_season":null,"rec1stop_url":null,"restrictions":"The following restrictions apply to the Rampart Range Motorized Recreation Area:     A Colorado OHV (Off Highway Vehicle) registration or current license plate with OHV permit is required to ride on the trails. Contact Colorado State Parks at 303-866-3437 for OHV registration information.  A current license plate and valid driver’s license are required to ride on the roads.  Only vehicles 50” or less in width can be on trails.  All vehicles must have a U.S. Forest Service approved  SPARK ARRESTOR.   Ride on designated trails.   ","restroom_availability":"No ","seasonal_operational_status":"OPEN","site_name":"DUTCH FRED","site_type":"TRAILHEAD","usda_portal_url":"https://www.fs.usda.gov/recarea/psicc/recarea/?recid=12930","water_availability":"No"},"type":"Feature"},{"geometry":{"coordinates":[-105.092215,39.327492],"type":"Point"},"properties":{"activity_type_list":"CAMPING, TENT | CAMPING, TRAILER | CAMPING, VEHICLE | HUNTING | NATURE STUDY | PHOTOGRAPHY | PICNICKING | SPECIAL LANDCRAFT (OHVS)","directions":"To reach this area, take U.S. Highway 85 south to Sedalia. Turn west on Highway 67 for 10 miles to the junction with Rampart Range Road. Turn south onto Rampart Range Road for 5 miles. Flat Rocks Campground will be on the west side of the road. ","evidence":0,"fee_description":null,"id":"recreation-3306411","important_info":null,"name":"FLAT ROCKS CG","op_status_reason":null,"open_season":"May 28, 2021 ","rec1stop_url":"https://www.recreation.gov/camping/campgrounds/10165295","restrictions":"The following restrictions apply to this campground:     Maximum 8 persons per site, 2 tents and 2 vehicles or 1 recreation vehicle.  Dogs must be leashed at all times.  No discharge of firearms or fireworks.  Only licensed vehicles can operate inside campground.   Camping is NOT ALLOWED behind a LOCKED GATE.    ","restroom_availability":"Vault toilets ","seasonal_operational_status":"OPEN","site_name":"FLAT ROCKS CG","site_type":"CAMPGROUND","usda_portal_url":"https://www.fs.usda.gov/recarea/psicc/recarea/?recid=12931","water_availability":"Yes"},"type":"Feature"},{"geometry":{"coordinates":[-105.187394,39.32779],"type":"Point"},"properties":{"activity_type_list":"No Data","directions":null,"evidence":0,"fee_description":null,"id":"recreation-3307252","important_info":null,"name":"SCRAGGY VIEW","op_status_reason":null,"open_season":"January 1, 2021 ","rec1stop_url":null,"restrictions":null,"restroom_availability":"Vault toilet ","seasonal_operational_status":"OPEN","site_name":"SCRAGGY VIEW","site_type":"PICNIC SITE","usda_portal_url":"https://www.fs.usda.gov/recarea/psicc/recarea/?recid=12988","water_availability":"None"},"type":"Feature"},{"geometry":{"coordinates":[-105.087848,39.303854],"type":"Point"},"properties":{"activity_type_list":"No Data","directions":null,"evidence":0,"fee_description":null,"id":"recreation-3307758","important_info":null,"name":"RIM ROAD","op_status_reason":null,"open_season":null,"rec1stop_url":null,"restrictions":"The following restrictions apply to the Rampart Range Motorized Recreation Area:     An OHV (Off Highway Vehicle) registration or current license plate is required to ride on the trails. Contact Colorado State Parks at 303-866-3437 for OHV registration information.  A current license plate and valid driver'||chr(38)||'rsquo;s license are required to ride on the roads.  Only vehicles 50'||chr(38)||'rdquo; or less in width can be on trails.  All vehicles must have a U.S. Forest Service approved  SPARK ARRESTOR.   Ride on designated trails.   ","restroom_availability":"No ","seasonal_operational_status":"OPEN","site_name":"RIM ROAD","site_type":"TRAILHEAD","usda_portal_url":"https://www.fs.usda.gov/recarea/psicc/recarea/?recid=12983","water_availability":"No"},"type":"Feature"},{"geometry":{"coordinates":[-105.173374,39.133682],"type":"Point"},"properties":{"activity_type_list":"No Data","directions":null,"evidence":0,"fee_description":null,"id":"recreation-3308608","important_info":null,"name":"BELL ROCK","op_status_reason":null,"open_season":null,"rec1stop_url":null,"restrictions":null,"restroom_availability":null,"seasonal_operational_status":"OPEN","site_name":"BELL ROCK","site_type":"RECREATION RESIDENCE","usda_portal_url":null,"water_availability":null},"type":"Feature"},{"geometry":{"coordinates":[-105.17501,39.301006],"type":"Point"},"properties":{"activity_type_list":"CAMPING, GENERAL DAY | HIKING | HIKING - MODERATE | VIEWING WILDFLOWERS | VIEWING WILDLIFE","directions":"Travel north of Elkhart on Highway 27 to the Cottonwood Picnic Grounds (just south of the Cimarron River Bridge). Vehicles may be parked at the Picnic Grounds. Some visitors choose to pick up the Turkey Trail at the Cimarron Recreation Area, 4 miles east of Highway 27 on FS700 (South River Road). Restrooms are available at the Cottonwood picnic Ground and the Cimarron Recreation Area. The Turkey Trail begins at the far eastern end of Cottonwood Picnic Grounds near the southern end of the Cimarron River bridge on highway 27.  The trail ends one mile east of Wilburton Crossing.","evidence":0,"fee_description":null,"id":"recreation-3310732","important_info":null,"name":"TURKEY","op_status_reason":null,"open_season":null,"rec1stop_url":null,"restrictions":null,"restroom_availability":null,"seasonal_operational_status":"OPEN","site_name":"TURKEY","site_type":"TRAILHEAD","usda_portal_url":null,"water_availability":null},"type":"Feature"},{"geometry":{"coordinates":[-105.169567,39.374884],"type":"Point"},"properties":{"activity_type_list":"No Data","directions":null,"evidence":0,"fee_description":null,"id":"recreation-3310872","important_info":null,"name":"FROG ROCK","op_status_reason":null,"open_season":null,"rec1stop_url":null,"restrictions":null,"restroom_availability":null,"seasonal_operational_status":"OPEN","site_name":"FROG ROCK","site_type":"FISHING SITE","usda_portal_url":null,"water_availability":null},"type":"Feature"},{"geometry":{"coordinates":[-105.104841,39.270299],"type":"Point"},"properties":{"activity_type_list":"No Data","directions":"To reach this area, take U.S. Highway 85 (Evans) south to Sedalia. Turn west on Highway 67 for 10 miles to the junction with Rampart Range Road (NFSR 300). Devil s Head Picnic Area is located approximately 10 miles south on Rampart Range Road. ","evidence":0,"fee_description":null,"id":"recreation-3311222","important_info":null,"name":"DEVILS HEAD PS","op_status_reason":null,"open_season":null,"rec1stop_url":null,"restrictions":"The following restrictions apply to this picnic site :   Overnight use prohibited.  Fires only in established fire rings.  Pack it in; pack it out.   ","restroom_availability":"Vault toilets ","seasonal_operational_status":"OPEN","site_name":"DEVILS HEAD PS","site_type":"PICNIC SITE","usda_portal_url":"https://www.fs.usda.gov/recarea/psicc/recarea/?recid=12926","water_availability":"Yes"},"type":"Feature"},{"geometry":{"coordinates":[-105.104022,39.281747],"type":"Point"},"properties":{"activity_type_list":"No Data","directions":"To access the Cabin Ridge Trailhead from Denver: Travel south on Highway 85 (Santa Fe) 10 miles to the town of Sedalia. Turn west on Highway 67 and travel 10 miles west. When you get to the Rampart Range Road, turn south and continue 9.5 miles to the Cabin Ridge Trailhead. ","evidence":0,"fee_description":null,"id":"recreation-3311789","important_info":null,"name":"CABIN RIDGE TH","op_status_reason":null,"open_season":"Year-round ","rec1stop_url":null,"restrictions":"The following restrictions apply to this trail :    Dogs must be leashed at all times   Pack it in; pack it out.  Practice  Leave No Trace  principles  Stay on designated trail. No switchbacks.   ","restroom_availability":"No ","seasonal_operational_status":"OPEN","site_name":"CABIN RIDGE TH","site_type":"TRAILHEAD","usda_portal_url":"https://www.fs.usda.gov/recarea/psicc/recarea/?recid=12918","water_availability":"No"},"type":"Feature"},{"geometry":{"coordinates":[-105.172557,39.30142],"type":"Point"},"properties":{"activity_type_list":"No Data","directions":"From Denver, travel south on Hwy 85/ Santa Fe drive 10 miles to Sedalia.  Travel west on Hwy 67 for 14 miles to Sprucewood. Continue south on Hwy 67 for 6.5 miles. ","evidence":0,"fee_description":null,"id":"recreation-3313430","important_info":null,"name":"677B LOG JUMPER","op_status_reason":null,"open_season":null,"rec1stop_url":null,"restrictions":"The following restrictions apply to the Rampart Range Motorized Recreation Area:     An OHV (Off Highway Vehicle) registration or current license plate is required to ride on the trails. Contact Colorado State Parks at 303-866-3437 for OHV registration information.  A current license plate and valid driver’s license are required to ride on the roads.  Only vehicles 50” or less in width can be on trails.  All vehicles must have a U.S. Forest Service approved  SPARK ARRESTOR.   Ride on designated trails.   ","restroom_availability":null,"seasonal_operational_status":"OPEN","site_name":"677B LOG JUMPER","site_type":"TRAILHEAD","usda_portal_url":"https://www.fs.usda.gov/recarea/psicc/recarea/?recid=12899","water_availability":null},"type":"Feature"},{"geometry":{"coordinates":[-105.088995,39.24572],"type":"Point"},"properties":{"activity_type_list":"No Data","directions":null,"evidence":0,"fee_description":null,"id":"recreation-3313457","important_info":null,"name":"JACKSON CREEK","op_status_reason":null,"open_season":null,"rec1stop_url":null,"restrictions":null,"restroom_availability":null,"seasonal_operational_status":"OPEN","site_name":"JACKSON CREEK","site_type":"RECREATION RESIDENCE","usda_portal_url":null,"water_availability":null},"type":"Feature"},{"geometry":{"coordinates":[-105.104867,39.269738],"type":"Point"},"properties":{"activity_type_list":"HIKING - MODERATE | HORSEBACK RIDING","directions":"Devils Head Lookout Trail can be reached by traveling approximately ten miles west of Sedalia on Highway 67 to the Rampart Range Road. Turn left (south) on the Rampart Range Road for approximately eight and one-half miles to the trailhead. Park your car in the picnic area to begin the hike.","evidence":0,"fee_description":null,"id":"recreation-3314280","important_info":null,"name":"DEVILS HEAD TH","op_status_reason":null,"open_season":null,"rec1stop_url":null,"restrictions":null,"restroom_availability":null,"seasonal_operational_status":"OPEN","site_name":"DEVILS HEAD TH","site_type":"TRAILHEAD","usda_portal_url":null,"water_availability":null},"type":"Feature"},{"geometry":{"coordinates":[-105.105387,39.135439],"type":"Point"},"properties":{"activity_type_list":"No Data","directions":null,"evidence":0,"fee_description":null,"id":"recreation-3314289","important_info":null,"name":"RAINBOW FALLS","op_status_reason":null,"open_season":null,"rec1stop_url":null,"restrictions":null,"restroom_availability":null,"seasonal_operational_status":"OPEN","site_name":"RAINBOW FALLS","site_type":"TRAILHEAD","usda_portal_url":null,"water_availability":null},"type":"Feature"},{"geometry":{"coordinates":[-105.094122,39.377162],"type":"Point"},"properties":{"activity_type_list":"CAMPING, TENT | CROSS-COUNTRY SKIING, SNOWSHOEING | FISHING | HIKING | HORSEBACK RIDING | MOUNTAIN/TRAIL BICYCLING | PICNICKING | VIEWING SCENERY","directions":"This easy trail follows the Reservoirs shoreline providing opportunities for fishing access, picnicking and enjoying the beauty of the area.      \n\n1. Take the Rampart Range Road north from Woodland Park (turn off Hwy 24 at McDonalds).This road will take you past the Woodland Park schools and a portion of Woodland Park`s residential area. Follow the signs to Rampart Reservoir.\n\n2. (From Colorado Springs) If you are looking for a scenic drive prior to your hike, the Rampart Range Road offers scenic vistas of Colorado Springs and many canyons. Take the Manitou Springs exit as if going to Garden of the Gods. After going past \"Balanced Rock\" a sign on the left will indicate the Rampart Range Road. This route should be chosen only if you have an extra hour of driving time.\n\nDuring the winter, Forest Service Road 306 to Rampart Reservoir is closed with a gate. Additional cross country ski access is via Rainbow Gulch Trail which begins on Rampart Range Road a little west of road 306.","evidence":0,"fee_description":null,"id":"recreation-3314802","important_info":"Drinking water is available at promontory picnic area during the summer.","name":"RAMPART ENTRANCE","op_status_reason":null,"open_season":null,"rec1stop_url":null,"restrictions":null,"restroom_availability":null,"seasonal_operational_status":"OPEN","site_name":"RAMPART ENTRANCE","site_type":"TRAILHEAD","usda_portal_url":null,"water_availability":null},"type":"Feature"},{"geometry":{"coordinates":[-105.187784,39.320605],"type":"Point"},"properties":{"activity_type_list":"CAMPING, TENT","directions":"From Denver: Take U.S. Highway 285 to Pine Junction. Take south on Jefferson County Road 126 and drive for approximately 25 miles to Douglas County 67 at Deckers. Campground is located 7 miles north of Deckers on the left hand side. From Sedalia: Take U.S. Highway 67 from Sedalia to Sprucewood. Stay on 67 South (straight) until you reach pavement at the South Platte River. Go 1 mile nouth to Ouzel Campground, which is on the left hand side. ","evidence":0,"fee_description":null,"id":"recreation-3316014","important_info":"No water. Portable toilets available during full service camping.","name":"OUZEL","op_status_reason":null,"open_season":"May 1, 2021 ","rec1stop_url":"https://www.recreation.gov/camping/campgrounds/10165520","restrictions":"REMEMBER!  You must be in a designated campground to stay overnight. Fires are permitted ONLY in the campgrounds, no fires are allowed in the picnic areas. NO SHOOTING ALLOWED! Much of the property along the river is privately owned. Please respect the posted signs.   Additional, the following restrictions apply to this campground :   Maximum 8 persons per site: 2 tents and 2 vehicles.   Dogs must be leashed at all times.   No discharge of firearms or fireworks.  Only licensed vehicles can operate inside campground.   ","restroom_availability":"Vault toilet ","seasonal_operational_status":"OPEN","site_name":"OUZEL","site_type":"CAMPGROUND","usda_portal_url":"https://www.fs.usda.gov/recarea/psicc/recarea/?recid=12976","water_availability":"NO WATER"},"type":"Feature"},{"geometry":{"coordinates":[-105.105857,39.279615],"type":"Point"},"properties":{"activity_type_list":"No Data","directions":"To access the Cabin Ridge picnic area from Denver: Travel south on Highway 85 / Santa Fe 10 miles to the town of Sedalia. Turn west on Highway 67 and travel 10 miles west. When you get to the Rampart Range Road, turn south and continue 9.5 miles to the Cabin Ridge Picnic Area.  ","evidence":0,"fee_description":"Day Use:\n$7 per vehicle per day","id":"recreation-3316544","important_info":null,"name":"CABIN RIDGE PS","op_status_reason":null,"open_season":"May 8 ","rec1stop_url":null,"restrictions":"The following restrictions apply to this picnic site :   Overnight use prohibited.  Fires only in established fire rings.  Pack it in; pack it out.   ","restroom_availability":"Vault toilet ","seasonal_operational_status":"OPEN","site_name":"CABIN RIDGE PS","site_type":"PICNIC SITE","usda_portal_url":"https://www.fs.usda.gov/recarea/psicc/recarea/?recid=12917","water_availability":"No"},"type":"Feature"},{"geometry":{"coordinates":[-105.129053,39.322024],"type":"Point"},"properties":{"activity_type_list":"No Data","directions":"From Denver, travel Hwy 85/Santa Fe South for 10 miles to Sedalia. Turn west on Hwy 67 for 14 miles to Sprucewood. Stay straight on Hwy 67 south for 2.5 miles. ","evidence":0,"fee_description":null,"id":"recreation-3317905","important_info":null,"name":"677A NODDLE","op_status_reason":null,"open_season":null,"rec1stop_url":null,"restrictions":"The following restrictions apply to the Rampart Range Motorized Recreation Area:     An OHV (Off Highway Vehicle) registration or current license plate is required to ride on the trails. Contact Colorado State Parks at 303-866-3437 for OHV registration information.  A current license plate and valid driver’s license are required to ride on the roads.  Only vehicles 50” or less in width can be on trails.  All vehicles must have a U.S. Forest Service approved  SPARK ARRESTOR.   Ride on designated trails.   ","restroom_availability":"No ","seasonal_operational_status":"OPEN","site_name":"677A NODDLE","site_type":"TRAILHEAD","usda_portal_url":"https://www.fs.usda.gov/recarea/psicc/recarea/?recid=12898","water_availability":"No"},"type":"Feature"},{"geometry":{"coordinates":[-105.117323,39.258077],"type":"Point"},"properties":{"activity_type_list":"No Data","directions":null,"evidence":0,"fee_description":null,"id":"recreation-3319912","important_info":null,"name":"TOPAZ POINT","op_status_reason":null,"open_season":"May 15 ","rec1stop_url":null,"restrictions":null,"restroom_availability":"Vault toilets ","seasonal_operational_status":"OPEN","site_name":"TOPAZ POINT","site_type":"PICNIC SITE","usda_portal_url":"https://www.fs.usda.gov/recarea/psicc/recarea/?recid=12998","water_availability":"No"},"type":"Feature"},{"geometry":{"coordinates":[-105.03304,39.299386],"type":"Point"},"properties":{"activity_type_list":"No Data","directions":null,"evidence":0,"fee_description":null,"id":"recreation-3322652","important_info":null,"name":"DAKAN","op_status_reason":null,"open_season":null,"rec1stop_url":null,"restrictions":null,"restroom_availability":"One CXT double","seasonal_operational_status":"OPEN","site_name":"DAKAN","site_type":"DAY USE AREA","usda_portal_url":null,"water_availability":"N/A"},"type":"Feature"}],"layer_id":"recreation","type":"FeatureCollection"}
