{"evidence_table":[{"agency":"Pitkin County","confidence":"unverified","last_verified":null,"notes":"Review current dated notices, effective periods and jurisdiction. Page hash is not a restriction stage.","retrieved_at":"2026-09-25T03:22:41.046699Z","source_url":"https://pitkincounty.com/CivicAlerts.asp","verification_method":"html_change_monitor"}],"features":[{"geometry":null,"properties":{"evidence":0,"id":"pitkin-fire-monitor","last_checked_at":"2026-09-25T03:22:41.046652Z","last_confirmed_at":null,"max_age_hours":24,"needs_review":true,"source_changed":null,"source_hash":"cb9df2148a86f40f32aa336aa3c156cfb5da09ce72687194705fb0bf94038ad3","stage":null,"status":"unknown","type":"fire_notice_monitor"},"type":"Feature"}],"layer_id":"fire_restriction_stage","type":"FeatureCollection"}
