{"evidence_table":[{"agency":"USGS","confidence":"high","last_verified":null,"notes":"","retrieved_at":"2026-10-07T00:32:43.278494Z","source_url":"https://hydro.nationalmap.gov/arcgis/rest/services/nhd/MapServer/12","verification_method":"arcgis_rest_query"}],"features":[{"geometry":{"coordinates":[[[-106.587494,39.127692],[-106.587698,39.127473],[-106.587789,39.1274],[-106.587926,39.127326],[-106.588294,39.127231],[-106.588386,39.127212],[-106.588525,39.127246],[-106.58876,39.127378],[-106.588888,39.127412],[-106.589119,39.127418],[-106.589305,39.127461],[-106.589434,39.127531],[-106.589483,39.127629],[-106.589485,39.127719],[-106.589465,39.127864],[-106.589489,39.127918],[-106.589596,39.128042],[-106.589574,39.128097],[-106.589584,39.128529],[-106.589684,39.128852],[-106.589912,39.129236],[-106.589906,39.129462],[-106.589883,39.129498],[-106.589781,39.129581],[-106.589714,39.129672],[-106.58967,39.129798],[-106.589615,39.129907],[-106.589524,39.129962],[-106.589442,39.130004],[-106.589421,39.130009],[-106.589282,39.130011],[-106.589084,39.129968],[-106.588874,39.12989],[-106.588464,39.129644],[-106.588393,39.129599],[-106.588357,39.129537],[-106.588203,39.129386],[-106.587598,39.128718],[-106.587503,39.128584],[-106.587393,39.128343],[-106.587343,39.128145],[-106.587282,39.12802],[-106.58728,39.127921],[-106.58729,39.127875],[-106.587494,39.127692]]],"type":"Polygon"},"properties":{"area_sqkm":0.046,"evidence":0,"fcode":39004,"gnis_id":"00180101","hydro_category":"perennial","id":"nhd-72972344","name":"Linkins Lake","water_class":"lake_pond"},"type":"Feature"},{"geometry":{"coordinates":[[[-107.052998,39.015257],[-107.052956,39.01541],[-107.052923,39.015456],[-107.05288,39.015511],[-107.052867,39.015529],[-107.052708,39.015595],[-107.05249,39.015644],[-107.052455,39.015663],[-107.05241,39.01569],[-107.052345,39.015836],[-107.052277,39.015873],[-107.051781,39.015918],[-107.051667,39.015956],[-107.051497,39.016058],[-107.051394,39.016105],[-107.051325,39.016124],[-107.05128,39.016143],[-107.051246,39.016188],[-107.051247,39.016224],[-107.051191,39.016279],[-107.051157,39.016289],[-107.051099,39.016281],[-107.051064,39.016264],[-107.050982,39.01622],[-107.050981,39.016184],[-107.050992,39.016166],[-107.051106,39.01611],[-107.051241,39.016008],[-107.05132,39.015935],[-107.051382,39.015672],[-107.051401,39.015555],[-107.051311,39.015214],[-107.051318,39.015079],[-107.051396,39.014978],[-107.051418,39.014915],[-107.051474,39.014878],[-107.05152,39.014859],[-107.0516,39.014849],[-107.051693,39.014865],[-107.051822,39.014926],[-107.051984,39.01495],[-107.052031,39.014967],[-107.052067,39.014994],[-107.052078,39.015002],[-107.05208,39.015047],[-107.05207,39.015102],[-107.051947,39.015248],[-107.051914,39.015312],[-107.051904,39.015366],[-107.05194,39.015401],[-107.052033,39.015445],[-107.05216,39.015442],[-107.052264,39.015423],[-107.052482,39.015383],[-107.052677,39.015325],[-107.052847,39.015223],[-107.052939,39.015194],[-107.052974,39.015212],[-107.052998,39.015257]]],"type":"Polygon"},"properties":{"area_sqkm":0.011000000000000001,"evidence":0,"fcode":39004,"gnis_id":"00175580","hydro_category":"perennial","id":"nhd-72978806","name":"Elko Lake","water_class":"lake_pond"},"type":"Feature"},{"geometry":{"coordinates":[[[-106.894322,39.186053],[-106.894297,39.185982],[-106.894282,39.185865],[-106.894302,39.185738],[-106.894323,39.185648],[-106.894389,39.185548],[-106.894527,39.185491],[-106.894642,39.18548],[-106.894781,39.185478],[-106.894955,39.185502],[-106.895059,39.185474],[-106.895127,39.185427],[-106.895208,39.185408],[-106.895254,39.185425],[-106.895267,39.185461],[-106.895314,39.185496],[-106.895363,39.185604],[-106.895415,39.185783],[-106.895396,39.185973],[-106.895328,39.186104],[-106.895297,39.186164],[-106.895241,39.186227],[-106.895151,39.186301],[-106.895013,39.186357],[-106.894898,39.186377],[-106.894678,39.186381],[-106.894525,39.186275],[-106.894322,39.186053]]],"type":"Polygon"},"properties":{"area_sqkm":0.008162870000000001,"evidence":0,"fcode":39009,"gnis_id":"00180018","hydro_category":"perennial","id":"nhd-72968858","name":"Whites Lake","water_class":"lake_pond"},"type":"Feature"},{"geometry":{"coordinates":[[[-106.569414,39.23135],[-106.5693,39.231441],[-106.569236,39.231483],[-106.569163,39.231533],[-106.56897,39.231698],[-106.568834,39.231853],[-106.568675,39.232008],[-106.568572,39.232055],[-106.568549,39.232046],[-106.568519,39.231749],[-106.568483,39.231678],[-106.5684,39.231598],[-106.568316,39.231473],[-106.568278,39.231311],[-106.568285,39.231131],[-106.568328,39.230986],[-106.568406,39.230832],[-106.568459,39.230606],[-106.568525,39.230443],[-106.56857,39.230415],[-106.56864,39.230423],[-106.568687,39.230459],[-106.568712,39.230512],[-106.568782,39.230538],[-106.568828,39.230529],[-106.568896,39.230492],[-106.568977,39.230473],[-106.569093,39.23048],[-106.569163,39.230506],[-106.569177,39.230587],[-106.569213,39.230668],[-106.569273,39.230748],[-106.569321,39.230846],[-106.569325,39.231],[-106.569458,39.23125],[-106.569443,39.231282],[-106.569414,39.23135]]],"type":"Polygon"},"properties":{"area_sqkm":0.012,"evidence":0,"fcode":39004,"gnis_id":"00180092","hydro_category":"perennial","id":"nhd-72972274","name":"Granite Lakes","water_class":"lake_pond"},"type":"Feature"},{"geometry":{"coordinates":[[[-106.57093,39.242214],[-106.570893,39.242106],[-106.570902,39.24198],[-106.570946,39.241853],[-106.570954,39.241727],[-106.570928,39.241565],[-106.5709,39.241376],[-106.570955,39.241222],[-106.571034,39.24114],[-106.571113,39.241067],[-106.571228,39.240993],[-106.57157,39.240754],[-106.571777,39.240698],[-106.572032,39.240703],[-106.57216,39.240729],[-106.572278,39.24079],[-106.572384,39.240897],[-106.57248,39.241031],[-106.572611,39.2412],[-106.572719,39.24137],[-106.572722,39.241478],[-106.572636,39.241794],[-106.57256,39.242021],[-106.572449,39.242238],[-106.572347,39.242348],[-106.572198,39.242431],[-106.572049,39.242478],[-106.571702,39.24251],[-106.57133,39.242461],[-106.571167,39.242409],[-106.571026,39.242321],[-106.570986,39.242276],[-106.57093,39.242214]]],"type":"Polygon"},"properties":{"area_sqkm":0.025,"evidence":0,"fcode":39004,"gnis_id":"00180092","hydro_category":"perennial","id":"nhd-72972272","name":"Granite Lakes","water_class":"lake_pond"},"type":"Feature"},{"geometry":{"coordinates":[[[-106.637719,39.026927],[-106.637528,39.027173],[-106.637391,39.027274],[-106.637289,39.02732],[-106.637127,39.02735],[-106.636817,39.02739],[-106.636597,39.027384],[-106.636458,39.027368],[-106.636067,39.027437],[-106.635939,39.027421],[-106.635625,39.027299],[-106.635429,39.027356],[-106.635086,39.027469],[-106.634948,39.027497],[-106.634797,39.027491],[-106.63468,39.02742],[-106.634477,39.027117],[-106.634394,39.027046],[-106.634301,39.027002],[-106.634344,39.026866],[-106.634467,39.026702],[-106.634592,39.026583],[-106.634752,39.026509],[-106.634889,39.026471],[-106.63528,39.026394],[-106.635624,39.026263],[-106.636397,39.025842],[-106.636457,39.025809],[-106.636718,39.025616],[-106.636911,39.025452],[-106.637127,39.02534],[-106.637265,39.025293],[-106.637611,39.025253],[-106.63775,39.025269],[-106.637901,39.02533],[-106.637972,39.025414],[-106.637984,39.025427],[-106.638068,39.025543],[-106.638094,39.025696],[-106.638109,39.025813],[-106.638184,39.026064],[-106.638174,39.026155],[-106.638176,39.026245],[-106.638261,39.026388],[-106.638251,39.026487],[-106.638206,39.026542],[-106.637854,39.02679],[-106.637719,39.026927]]],"type":"Polygon"},"properties":{"area_sqkm":0.05,"evidence":0,"fcode":39004,"gnis_id":"00180327","hydro_category":"perennial","id":"nhd-72974996","name":"Petroleum Lake","water_class":"lake_pond"},"type":"Feature"},{"geometry":{"coordinates":[[[-106.949517,39.242779],[-106.94947,39.242726],[-106.94943,39.242546],[-106.949426,39.242411],[-106.949475,39.242095],[-106.94953,39.241968],[-106.949518,39.241856],[-106.949499,39.241671],[-106.949272,39.241441],[-106.949097,39.240966],[-106.949057,39.240805],[-106.949027,39.240553],[-106.949032,39.240318],[-106.948993,39.239743],[-106.949019,39.239418],[-106.949059,39.239192],[-106.949202,39.238928],[-106.949229,39.238639],[-106.949216,39.238567],[-106.949118,39.238398],[-106.949068,39.238273],[-106.949072,39.237993],[-106.949023,39.237481],[-106.948902,39.237266],[-106.948529,39.236777],[-106.948283,39.236259],[-106.948198,39.236134],[-106.947795,39.23578],[-106.947381,39.23549],[-106.947155,39.235277],[-106.947035,39.235126],[-106.946919,39.234921],[-106.946877,39.234849],[-106.946752,39.234518],[-106.946666,39.234348],[-106.946514,39.2339],[-106.946496,39.233829],[-106.946437,39.233604],[-106.946406,39.233317],[-106.946438,39.233217],[-106.946483,39.233171],[-106.9467,39.23305],[-106.946837,39.233003],[-106.946906,39.232975],[-106.947138,39.232989],[-106.947197,39.233033],[-106.947392,39.233372],[-106.947597,39.233675],[-106.947751,39.23379],[-106.948151,39.234017],[-106.948189,39.234134],[-106.948124,39.234288],[-106.948079,39.234334],[-106.948081,39.234397],[-106.948117,39.23445],[-106.948674,39.234919],[-106.948899,39.235086],[-106.949416,39.235339],[-106.94972,39.235442],[-106.950062,39.235661],[-106.950087,39.235724],[-106.95009,39.235832],[-106.949994,39.236131],[-106.949996,39.236212],[-106.950033,39.236301],[-106.950292,39.236441],[-106.950352,39.236521],[-106.95038,39.236683],[-106.950356,39.23708],[-106.950395,39.237214],[-106.950432,39.237295],[-106.950528,39.237428],[-106.950646,39.237507],[-106.95074,39.23756],[-106.950857,39.237594],[-106.951008,39.237591],[-106.951245,39.237371],[-106.951358,39.237288],[-106.951564,39.237168],[-106.951701,39.237111],[-106.951816,39.237082],[-106.951943,39.237071],[-106.952049,39.237114],[-106.952122,39.237239],[-106.952151,39.237473],[-106.952142,39.237545],[-106.95207,39.237871],[-106.951973,39.238143],[-106.951759,39.238381],[-106.951693,39.238481],[-106.951456,39.238728],[-106.951335,39.238964],[-106.951167,39.239165],[-106.951024,39.239447],[-106.95096,39.239646],[-106.950921,39.239899],[-106.950974,39.240151],[-106.951063,39.240438],[-106.951112,39.240518],[-106.951384,39.240721],[-106.951693,39.240986],[-106.95204,39.241385],[-106.952172,39.241554],[-106.952468,39.242198],[-106.952941,39.242542],[-106.953,39.242604],[-106.953148,39.242898],[-106.953325,39.243031],[-106.953397,39.24312],[-106.953411,39.2432],[-106.953401,39.243273],[-106.953368,39.243327],[-106.953217,39.243321],[-106.95303,39.243243],[-106.951518,39.243034],[-106.949517,39.242779]]],"type":"Polygon"},"properties":{"area_sqkm":0.21200000000000002,"evidence":0,"fcode":39004,"gnis_id":"00180011","hydro_category":"perennial","id":"nhd-72968800","name":"Wildcat Reservoir","water_class":"lake_pond"},"type":"Feature"},{"geometry":{"coordinates":[[[-106.743969,39.171363],[-106.744015,39.171335],[-106.744096,39.171334],[-106.744154,39.17136],[-106.744235,39.171341],[-106.744257,39.171305],[-106.744266,39.171187],[-106.744217,39.171089],[-106.744216,39.171035],[-106.744337,39.170538],[-106.744363,39.170429],[-106.744474,39.170247],[-106.744575,39.17011],[-106.744735,39.170018],[-106.744826,39.169981],[-106.744918,39.169943],[-106.74501,39.169924],[-106.745114,39.169904],[-106.745218,39.169903],[-106.745335,39.169946],[-106.745463,39.169971],[-106.745567,39.169978],[-106.745777,39.170029],[-106.746033,39.17008],[-106.746393,39.170137],[-106.746428,39.170155],[-106.746463,39.170181],[-106.74653,39.17055],[-106.746568,39.170675],[-106.746785,39.171032],[-106.746849,39.171248],[-106.746834,39.171753],[-106.74683,39.171888],[-106.746843,39.17241],[-106.746808,39.172429],[-106.746775,39.172474],[-106.746697,39.172602],[-106.746664,39.172683],[-106.746643,39.172765],[-106.746616,39.173062],[-106.74661,39.173297],[-106.7466,39.173351],[-106.74638,39.173381],[-106.746185,39.173429],[-106.746127,39.17343],[-106.746081,39.173431],[-106.745999,39.173387],[-106.745833,39.173236],[-106.745739,39.173175],[-106.74554,39.173096],[-106.745355,39.17309],[-106.745286,39.173109],[-106.74524,39.173137],[-106.745207,39.17321],[-106.74519,39.173444],[-106.745205,39.173597],[-106.745183,39.17366],[-106.745149,39.173679],[-106.744712,39.173794],[-106.744531,39.173499],[-106.744389,39.173357],[-106.744223,39.173224],[-106.744187,39.173144],[-106.744162,39.173063],[-106.744158,39.172901],[-106.744198,39.172666],[-106.744319,39.172385],[-106.744464,39.172202],[-106.744541,39.172003],[-106.744526,39.171877],[-106.744501,39.171824],[-106.744442,39.171761],[-106.74404,39.171461],[-106.743992,39.171426],[-106.743959,39.171399],[-106.743969,39.171363]]],"type":"Polygon"},"properties":{"area_sqkm":0.078,"evidence":0,"fcode":39004,"gnis_id":"00180079","hydro_category":"perennial","id":"nhd-72981164","name":"Warren Lakes","water_class":"lake_pond"},"type":"Feature"},{"geometry":{"coordinates":[[[-106.656457,39.06311],[-106.656479,39.063047],[-106.656488,39.062956],[-106.656464,39.062894],[-106.656299,39.062752],[-106.656227,39.062654],[-106.656167,39.062555],[-106.656084,39.062457],[-106.656023,39.062323],[-106.655998,39.062233],[-106.656031,39.06217],[-106.656087,39.062124],[-106.656478,39.062019],[-106.656973,39.061922],[-106.657146,39.06192],[-106.657309,39.061953],[-106.657507,39.062041],[-106.657902,39.062311],[-106.658036,39.062403],[-106.65812,39.062537],[-106.658237,39.062598],[-106.658365,39.062641],[-106.658378,39.062713],[-106.658357,39.062786],[-106.6583,39.062849],[-106.65821,39.062923],[-106.658095,39.062951],[-106.658002,39.062944],[-106.65776,39.062965],[-106.657622,39.063012],[-106.657543,39.063085],[-106.657488,39.063194],[-106.657457,39.063339],[-106.657494,39.063456],[-106.657497,39.063582],[-106.657417,39.063619],[-106.657336,39.063602],[-106.657229,39.063504],[-106.657134,39.063398],[-106.656993,39.063301],[-106.656924,39.063283],[-106.656646,39.063278],[-106.656518,39.063253],[-106.65646,39.063218],[-106.656457,39.06311]]],"type":"Polygon"},"properties":{"area_sqkm":0.022000000000000002,"evidence":0,"fcode":39004,"gnis_id":"00180323","hydro_category":"perennial","id":"nhd-72974934","name":"Tabor Lake","water_class":"lake_pond"},"type":"Feature"},{"geometry":{"coordinates":[[[-107.001319,39.077234],[-107.001377,39.077233],[-107.001516,39.077267],[-107.00161,39.07731],[-107.001728,39.07738],[-107.001788,39.077461],[-107.001905,39.077513],[-107.002161,39.07758],[-107.002312,39.077596],[-107.002635,39.07759],[-107.002902,39.077631],[-107.002996,39.077656],[-107.003089,39.07769],[-107.003218,39.077769],[-107.003254,39.077814],[-107.003267,39.077859],[-107.003292,39.077912],[-107.003254,39.07821],[-107.003178,39.078374],[-107.003136,39.078546],[-107.003081,39.078628],[-107.003024,39.078674],[-107.002925,39.078747],[-107.002901,39.078757],[-107.002819,39.078785],[-107.002695,39.078868],[-107.002614,39.078897],[-107.00235,39.078937],[-107.002107,39.078942],[-107.00199,39.078899],[-107.001859,39.078757],[-107.001706,39.07866],[-107.00167,39.078607],[-107.001645,39.078544],[-107.001644,39.078499],[-107.001688,39.078444],[-107.00178,39.078407],[-107.001814,39.078379],[-107.001812,39.078334],[-107.001788,39.078289],[-107.001375,39.077999],[-107.001327,39.077937],[-107.001254,39.077803],[-107.00119,39.07757],[-107.001187,39.077489],[-107.001191,39.077417],[-107.001195,39.077336],[-107.001227,39.077263],[-107.001246,39.077257],[-107.001319,39.077234]]],"type":"Polygon"},"properties":{"area_sqkm":0.022000000000000002,"evidence":0,"fcode":39004,"gnis_id":null,"hydro_category":"perennial","id":"nhd-72978716","name":null,"water_class":"lake_pond"},"type":"Feature"},{"geometry":{"coordinates":[[[-106.754197,39.130159],[-106.754245,39.130203],[-106.754274,39.130455],[-106.754348,39.130661],[-106.754367,39.130931],[-106.754527,39.131785],[-106.754517,39.131857],[-106.754449,39.131903],[-106.754287,39.131896],[-106.754216,39.13187],[-106.753697,39.131896],[-106.753477,39.13189],[-106.753291,39.131866],[-106.753034,39.13178],[-106.752952,39.131736],[-106.752892,39.131647],[-106.752889,39.131539],[-106.753086,39.131076],[-106.753199,39.130967],[-106.753347,39.130856],[-106.753552,39.130736],[-106.75389,39.13038],[-106.754025,39.130197],[-106.754082,39.13016],[-106.754169,39.130159],[-106.754197,39.130159]]],"type":"Polygon"},"properties":{"area_sqkm":0.018000000000000002,"evidence":0,"fcode":39004,"gnis_id":"00180073","hydro_category":"perennial","id":"nhd-72962754","name":"Tagerts Lake","water_class":"lake_pond"},"type":"Feature"},{"geometry":{"coordinates":[[[-106.669325,39.040688],[-106.669242,39.040618],[-106.669177,39.040303],[-106.66914,39.040223],[-106.669022,39.04008],[-106.668846,39.040001],[-106.668787,39.039948],[-106.668775,39.039894],[-106.668796,39.039831],[-106.668794,39.039723],[-106.668756,39.039597],[-106.668755,39.039534],[-106.668789,39.039507],[-106.668904,39.039505],[-106.669391,39.039579],[-106.669773,39.03961],[-106.669913,39.039662],[-106.6701,39.039767],[-106.670348,39.039971],[-106.670418,39.040006],[-106.670511,39.040041],[-106.670707,39.040011],[-106.670925,39.039954],[-106.671075,39.039961],[-106.671135,39.040023],[-106.671196,39.040184],[-106.671246,39.040346],[-106.671262,39.040517],[-106.671253,39.040643],[-106.671197,39.040725],[-106.671095,39.04078],[-106.670946,39.040827],[-106.670795,39.040821],[-106.670423,39.040727],[-106.670296,39.040711],[-106.670204,39.040721],[-106.670135,39.040767],[-106.670022,39.040859],[-106.669896,39.040887],[-106.669838,39.040879],[-106.669745,39.040854],[-106.669618,39.0408],[-106.669476,39.04074],[-106.669447,39.04073],[-106.669325,39.040688]]],"type":"Polygon"},"properties":{"area_sqkm":0.021,"evidence":0,"fcode":39004,"gnis_id":"00196602","hydro_category":"perennial","id":"nhd-65880737","name":"Ptarmigan Lake","water_class":"lake_pond"},"type":"Feature"},{"geometry":{"coordinates":[[[-106.581624,39.188989],[-106.581741,39.189024],[-106.581789,39.189095],[-106.581814,39.189194],[-106.581898,39.189319],[-106.581912,39.189418],[-106.58202,39.189605],[-106.582033,39.189677],[-106.581999,39.189714],[-106.58193,39.189733],[-106.581814,39.189698],[-106.581661,39.189687],[-106.58157,39.189684],[-106.581316,39.189696],[-106.581224,39.189715],[-106.581154,39.189716],[-106.580982,39.189773],[-106.580924,39.189773],[-106.580911,39.189729],[-106.581001,39.189592],[-106.581,39.189538],[-106.580952,39.189485],[-106.580928,39.189431],[-106.58095,39.189377],[-106.580914,39.189323],[-106.580844,39.189297],[-106.58082,39.189252],[-106.580784,39.189217],[-106.580783,39.189163],[-106.580828,39.18909],[-106.580895,39.189017],[-106.580965,39.189007],[-106.581046,39.189015],[-106.581092,39.188987],[-106.581146,39.188842],[-106.581214,39.188787],[-106.581238,39.188783],[-106.58133,39.188759],[-106.581399,39.188776],[-106.58153,39.188927],[-106.581604,39.188976],[-106.581624,39.188989]]],"type":"Polygon"},"properties":{"area_sqkm":0.008,"evidence":0,"fcode":39004,"gnis_id":"00180095","hydro_category":"perennial","id":"nhd-72972304","name":"Deadman Lake","water_class":"lake_pond"},"type":"Feature"},{"geometry":{"coordinates":[[[-106.567902,39.151899],[-106.568017,39.151879],[-106.568351,39.151793],[-106.568547,39.151764],[-106.568652,39.151807],[-106.568734,39.151851],[-106.568863,39.151904],[-106.568979,39.151938],[-106.569038,39.151964],[-106.569074,39.152036],[-106.569204,39.152151],[-106.569368,39.15223],[-106.569577,39.15229],[-106.569625,39.152353],[-106.569662,39.152443],[-106.569827,39.152584],[-106.569922,39.152709],[-106.569995,39.152862],[-106.570034,39.15305],[-106.570008,39.153438],[-106.570013,39.153654],[-106.570063,39.153843],[-106.570171,39.153994],[-106.570255,39.154147],[-106.570282,39.154326],[-106.57033,39.154407],[-106.570355,39.154488],[-106.570346,39.154519],[-106.570334,39.15456],[-106.570265,39.154597],[-106.570138,39.154608],[-106.569883,39.154602],[-106.569456,39.154635],[-106.569306,39.154673],[-106.569203,39.154719],[-106.568857,39.154751],[-106.568787,39.154743],[-106.568542,39.154674],[-106.568495,39.154639],[-106.568495,39.154612],[-106.568575,39.154566],[-106.568608,39.154493],[-106.568572,39.154458],[-106.56849,39.154414],[-106.568455,39.154369],[-106.568384,39.154325],[-106.56836,39.15428],[-106.568371,39.154244],[-106.568404,39.154189],[-106.568403,39.154144],[-106.568241,39.154129],[-106.568067,39.154131],[-106.567974,39.154087],[-106.567915,39.154034],[-106.567657,39.153362],[-106.567677,39.153226],[-106.567605,39.153119],[-106.567511,39.153039],[-106.567438,39.152896],[-106.567303,39.152528],[-106.567312,39.152411],[-106.567367,39.152275],[-106.567456,39.152148],[-106.567558,39.152056],[-106.567707,39.151982],[-106.567764,39.151927],[-106.567816,39.151918],[-106.567902,39.151899]]],"type":"Polygon"},"properties":{"area_sqkm":0.058,"evidence":0,"fcode":39004,"gnis_id":"00180102","hydro_category":"perennial","id":"nhd-72972330","name":"Lost Man Lake","water_class":"lake_pond"},"type":"Feature"},{"geometry":{"coordinates":[[[-107.03067,39.116776],[-107.030781,39.116639],[-107.03121,39.116262],[-107.031289,39.116198],[-107.03146,39.116096],[-107.031561,39.116013],[-107.031606,39.115958],[-107.031639,39.115894],[-107.031741,39.115802],[-107.031911,39.1157],[-107.032094,39.115616],[-107.032265,39.115541],[-107.032426,39.115493],[-107.032575,39.115455],[-107.032678,39.115417],[-107.032735,39.115398],[-107.032871,39.115287],[-107.033077,39.115239],[-107.033193,39.115228],[-107.033503,39.11515],[-107.033792,39.115163],[-107.034254,39.115137],[-107.034737,39.115038],[-107.034897,39.114982],[-107.034967,39.114971],[-107.035219,39.114886],[-107.035448,39.114828],[-107.035482,39.1148],[-107.035526,39.114727],[-107.03556,39.114691],[-107.035765,39.11457],[-107.036027,39.114457],[-107.036154,39.114428],[-107.036522,39.114368],[-107.036669,39.11423],[-107.036737,39.114202],[-107.036852,39.114164],[-107.037323,39.114074],[-107.037518,39.114026],[-107.038049,39.113962],[-107.038339,39.113993],[-107.038582,39.113998],[-107.038927,39.113947],[-107.038962,39.113946],[-107.039113,39.113989],[-107.039325,39.114093],[-107.039525,39.114234],[-107.039693,39.114429],[-107.039907,39.114624],[-107.039955,39.114713],[-107.040018,39.114865],[-107.040025,39.114901],[-107.040058,39.115072],[-107.040061,39.115171],[-107.040099,39.115296],[-107.040317,39.115617],[-107.040342,39.115688],[-107.040356,39.115787],[-107.040338,39.115959],[-107.040376,39.116075],[-107.040401,39.116138],[-107.04046,39.116173],[-107.040553,39.116198],[-107.040587,39.116229],[-107.04059,39.116252],[-107.04059,39.116279],[-107.040568,39.116306],[-107.040522,39.116316],[-107.040464,39.116308],[-107.040418,39.1163],[-107.040371,39.116273],[-107.040265,39.116239],[-107.040138,39.116232],[-107.039871,39.116183],[-107.039534,39.116144],[-107.03944,39.116164],[-107.039177,39.116195],[-107.038936,39.116253],[-107.038523,39.116396],[-107.038409,39.116443],[-107.038283,39.116472],[-107.037925,39.116496],[-107.037821,39.116507],[-107.037729,39.116536],[-107.037423,39.116721],[-107.037309,39.116777],[-107.037228,39.116806],[-107.036802,39.116858],[-107.03663,39.116897],[-107.036458,39.116964],[-107.036356,39.117028],[-107.036199,39.117211],[-107.036144,39.117302],[-107.036168,39.117338],[-107.036169,39.117383],[-107.036113,39.117438],[-107.036079,39.117448],[-107.036011,39.117521],[-107.035869,39.117794],[-107.035837,39.117875],[-107.035575,39.118033],[-107.035565,39.118069],[-107.035591,39.118195],[-107.035559,39.118268],[-107.035356,39.118442],[-107.035142,39.118653],[-107.035132,39.118699],[-107.035145,39.118779],[-107.035218,39.118904],[-107.035198,39.118995],[-107.035263,39.119264],[-107.035277,39.119327],[-107.035255,39.119363],[-107.035221,39.119382],[-107.035117,39.119402],[-107.03499,39.119404],[-107.034862,39.119388],[-107.0347,39.119391],[-107.034631,39.119401],[-107.034574,39.11942],[-107.034507,39.119493],[-107.034285,39.119813],[-107.034109,39.120131],[-107.034077,39.120231],[-107.034041,39.120177],[-107.033981,39.120106],[-107.03391,39.120044],[-107.033839,39.120019],[-107.033746,39.120002],[-107.033631,39.119995],[-107.033478,39.119926],[-107.033408,39.119909],[-107.03335,39.11991],[-107.033305,39.119929],[-107.033193,39.120066],[-107.032831,39.120342],[-107.032763,39.12038],[-107.032521,39.120438],[-107.032453,39.120475],[-107.032396,39.120521],[-107.032329,39.120594],[-107.032249,39.120623],[-107.031835,39.12072],[-107.03165,39.120723],[-107.031432,39.120754],[-107.031258,39.120757],[-107.031108,39.120751],[-107.030933,39.120709],[-107.030758,39.120667],[-107.030641,39.120606],[-107.030558,39.120544],[-107.030498,39.120473],[-107.030461,39.120402],[-107.030448,39.120339],[-107.030458,39.120267],[-107.030512,39.120149],[-107.03052,39.120013],[-107.030468,39.119816],[-107.030295,39.119432],[-107.030246,39.119351],[-107.030196,39.119226],[-107.030204,39.1191],[-107.030248,39.118991],[-107.030392,39.11879],[-107.030482,39.118681],[-107.030514,39.118617],[-107.030523,39.118509],[-107.030587,39.118327],[-107.030572,39.11821],[-107.030547,39.118157],[-107.030569,39.118102],[-107.030657,39.117939],[-107.030676,39.117803],[-107.030637,39.117651],[-107.030563,39.117508],[-107.030523,39.117319],[-107.030499,39.117293],[-107.030337,39.117259],[-107.03067,39.116776]]],"type":"Polygon"},"properties":{"area_sqkm":0.335,"evidence":0,"fcode":39004,"gnis_id":"00175551","hydro_category":"perennial","id":"nhd-72978672","name":"Snowmass Lake","water_class":"lake_pond"},"type":"Feature"},{"geometry":{"coordinates":[[[-106.620921,39.126439],[-106.620922,39.126475],[-106.6209,39.12653],[-106.620763,39.126604],[-106.620524,39.12676],[-106.620445,39.12686],[-106.620297,39.126971],[-106.619954,39.127138],[-106.619875,39.127211],[-106.619623,39.127349],[-106.619556,39.12744],[-106.619517,39.127747],[-106.619461,39.127847],[-106.619178,39.128085],[-106.619122,39.128185],[-106.619019,39.128232],[-106.618834,39.128252],[-106.618637,39.128228],[-106.618441,39.128249],[-106.618324,39.128214],[-106.618183,39.128108],[-106.618124,39.128028],[-106.618111,39.127974],[-106.618144,39.127911],[-106.618258,39.127837],[-106.618315,39.127782],[-106.618335,39.127656],[-106.618344,39.127556],[-106.618378,39.127502],[-106.618631,39.127471],[-106.6187,39.127416],[-106.61872,39.12729],[-106.618717,39.127173],[-106.618617,39.126823],[-106.618682,39.126669],[-106.618784,39.126541],[-106.618921,39.126467],[-106.619047,39.126438],[-106.619163,39.126455],[-106.619359,39.126416],[-106.619615,39.126457],[-106.619696,39.126456],[-106.619762,39.126347],[-106.619761,39.126266],[-106.619819,39.126283],[-106.61997,39.126299],[-106.620073,39.126271],[-106.620221,39.126152],[-106.620548,39.126282],[-106.620921,39.126439]]],"type":"Polygon"},"properties":{"area_sqkm":0.025,"evidence":0,"fcode":39004,"gnis_id":"00180099","hydro_category":"perennial","id":"nhd-72972346","name":"Lost Man Reservoir","water_class":"lake_pond"},"type":"Feature"},{"geometry":{"coordinates":[[[-106.614419,39.080018],[-106.61435,39.079928],[-106.614301,39.079857],[-106.614267,39.079808],[-106.614233,39.079714],[-106.614192,39.079611],[-106.61415,39.079557],[-106.614109,39.079508],[-106.614088,39.079468],[-106.614025,39.079433],[-106.613955,39.079425],[-106.613849,39.079431],[-106.613792,39.079432],[-106.613743,39.07941],[-106.613687,39.079379],[-106.613673,39.079357],[-106.613681,39.079284],[-106.613717,39.079252],[-106.613745,39.079216],[-106.61376,39.079202],[-106.613718,39.079176],[-106.613619,39.07915],[-106.613556,39.079128],[-106.613521,39.079124],[-106.613479,39.079116],[-106.613402,39.07909],[-106.613397,39.079032],[-106.613396,39.079014],[-106.613403,39.078973],[-106.61346,39.078932],[-106.613495,39.078904],[-106.613538,39.078876],[-106.613595,39.078871],[-106.613644,39.078866],[-106.613676,39.078866],[-106.613693,39.078865],[-106.613729,39.078829],[-106.613717,39.078815],[-106.61368,39.07878],[-106.613652,39.078767],[-106.613575,39.078727],[-106.613477,39.078688],[-106.6134,39.078649],[-106.613316,39.078596],[-106.613275,39.07852],[-106.613269,39.078421],[-106.613291,39.07833],[-106.613257,39.078263],[-106.613209,39.078151],[-106.613146,39.078084],[-106.613055,39.077991],[-106.613014,39.077902],[-106.613008,39.07783],[-106.61303,39.077762],[-106.613024,39.077685],[-106.613053,39.077608],[-106.613095,39.077567],[-106.613083,39.077491],[-106.61304,39.077451],[-106.61302,39.077392],[-106.613027,39.077356],[-106.613035,39.077311],[-106.613163,39.077192],[-106.613213,39.077173],[-106.613256,39.077132],[-106.613298,39.077096],[-106.613292,39.077037],[-106.613222,39.076998],[-106.613166,39.076953],[-106.613181,39.076917],[-106.613238,39.076835],[-106.613281,39.076772],[-106.613317,39.076667],[-106.61336,39.076617],[-106.613375,39.076518],[-106.613398,39.076428],[-106.613385,39.076351],[-106.613336,39.076284],[-106.613358,39.076216],[-106.613387,39.076198],[-106.61338,39.076112],[-106.61336,39.076086],[-106.613339,39.076054],[-106.613277,39.075898],[-106.613285,39.075861],[-106.613328,39.075789],[-106.613406,39.075747],[-106.613393,39.075684],[-106.613358,39.07564],[-106.61333,39.075609],[-106.613324,39.075555],[-106.613346,39.075487],[-106.613361,39.075414],[-106.613362,39.075324],[-106.613356,39.075225],[-106.613336,39.075131],[-106.61333,39.075036],[-106.613338,39.074964],[-106.613388,39.074855],[-106.613446,39.074728],[-106.613475,39.074624],[-106.613533,39.074529],[-106.61364,39.074397],[-106.613711,39.07436],[-106.613782,39.074323],[-106.613846,39.07429],[-106.613917,39.074249],[-106.614023,39.074198],[-106.614137,39.074138],[-106.614165,39.074151],[-106.6142,39.074159],[-106.614256,39.074172],[-106.61434,39.074216],[-106.614368,39.074256],[-106.614367,39.074315],[-106.614366,39.074369],[-106.614352,39.0744],[-106.614358,39.074477],[-106.614336,39.07454],[-106.614321,39.074577],[-106.614321,39.074626],[-106.614348,39.074761],[-106.614389,39.074787],[-106.614438,39.074841],[-106.614494,39.07489],[-106.614522,39.074934],[-106.614529,39.074948],[-106.6145,39.075002],[-106.614493,39.07502],[-106.614478,39.075079],[-106.614505,39.075119],[-106.614547,39.075141],[-106.614596,39.075186],[-106.614631,39.075235],[-106.614651,39.075342],[-106.61465,39.075406],[-106.61465,39.075442],[-106.614649,39.075469],[-106.614655,39.075536],[-106.614669,39.075585],[-106.614676,39.075617],[-106.614774,39.075647],[-106.614844,39.07566],[-106.614922,39.07569],[-106.614971,39.075712],[-106.615012,39.075747],[-106.615103,39.075791],[-106.615187,39.075849],[-106.615257,39.075893],[-106.615299,39.075969],[-106.615361,39.076108],[-106.615367,39.07618],[-106.615401,39.076215],[-106.615429,39.07626],[-106.615505,39.076425],[-106.615533,39.07647],[-106.615595,39.076519],[-106.615665,39.076554],[-106.615763,39.076634],[-106.615811,39.076714],[-106.615853,39.07679],[-106.615859,39.07688],[-106.615886,39.076983],[-106.61592,39.077032],[-106.615947,39.07714],[-106.615975,39.077207],[-106.615988,39.077306],[-106.615986,39.07741],[-106.61595,39.077537],[-106.61597,39.077613],[-106.615983,39.077721],[-106.616031,39.077792],[-106.616064,39.077949],[-106.616092,39.078062],[-106.616105,39.078125],[-106.61616,39.078196],[-106.61618,39.078268],[-106.616229,39.078357],[-106.616285,39.078428],[-106.61634,39.078527],[-106.616388,39.078607],[-106.616437,39.078652],[-106.616527,39.078758],[-106.616583,39.078812],[-106.616702,39.078882],[-106.616786,39.078949],[-106.616849,39.078988],[-106.616911,39.079059],[-106.616988,39.079126],[-106.617037,39.079161],[-106.6171,39.079219],[-106.617101,39.079237],[-106.617112,39.079354],[-106.616206,39.079867],[-106.615424,39.080306],[-106.615354,39.080275],[-106.615262,39.080245],[-106.615192,39.080255],[-106.615128,39.080278],[-106.615051,39.080266],[-106.614932,39.080227],[-106.614891,39.080218],[-106.614861,39.080214],[-106.614742,39.08018],[-106.614679,39.080158],[-106.614602,39.080101],[-106.614483,39.080039],[-106.61444,39.080035],[-106.614419,39.080018]],[[-106.615802,39.077557],[-106.615837,39.077511],[-106.615845,39.077443],[-106.615824,39.077421],[-106.615811,39.077363],[-106.61579,39.077313],[-106.615748,39.077274],[-106.615685,39.077265],[-106.615636,39.077262],[-106.615579,39.077267],[-106.61553,39.077295],[-106.615508,39.077326],[-106.615501,39.077363],[-106.615486,39.077417],[-106.615485,39.077462],[-106.615499,39.077498],[-106.61552,39.077529],[-106.615548,39.07756],[-106.615575,39.077591],[-106.615667,39.077617],[-106.615716,39.07763],[-106.615802,39.077557]]],"type":"Polygon"},"properties":{"area_sqkm":0.127,"evidence":0,"fcode":39004,"gnis_id":"00180354","hydro_category":"perennial","id":"nhd-72969562","name":"Grizzly Reservoir","water_class":"lake_pond"},"type":"Feature"},{"geometry":{"coordinates":[[[-106.618202,39.010944],[-106.618252,39.010881],[-106.618302,39.010826],[-106.618381,39.010753],[-106.618459,39.010679],[-106.61853,39.010597],[-106.618601,39.010511],[-106.618652,39.010447],[-106.618814,39.010364],[-106.618906,39.010331],[-106.619012,39.010284],[-106.619148,39.01017],[-106.619283,39.010055],[-106.619397,39.009946],[-106.619482,39.009863],[-106.619632,39.009722],[-106.619731,39.009675],[-106.619813,39.009674],[-106.619956,39.009686],[-106.620104,39.009683],[-106.620265,39.009699],[-106.62035,39.009707],[-106.620483,39.009746],[-106.62063,39.009784],[-106.620701,39.009815],[-106.620706,39.009855],[-106.620713,39.009918],[-106.620705,39.009977],[-106.620669,39.01005],[-106.620633,39.010127],[-106.620597,39.01024],[-106.620561,39.010321],[-106.620518,39.010367],[-106.620419,39.010409],[-106.620285,39.010442],[-106.620172,39.010453],[-106.620101,39.010526],[-106.620072,39.01058],[-106.620049,39.010621],[-106.619994,39.010636],[-106.61993,39.010673],[-106.619873,39.0107],[-106.619789,39.010724],[-106.61969,39.010734],[-106.619577,39.010736],[-106.619451,39.010738],[-106.619338,39.010748],[-106.619246,39.010754],[-106.619162,39.010742],[-106.619078,39.010707],[-106.619008,39.010631],[-106.618952,39.01061],[-106.618896,39.010597],[-106.618833,39.010611],[-106.618762,39.010635],[-106.618677,39.010672],[-106.618563,39.010755],[-106.618478,39.010805],[-106.6184,39.010883],[-106.61835,39.01092],[-106.618272,39.010993],[-106.61823,39.011003],[-106.618207,39.010985],[-106.618202,39.010944]]],"type":"Polygon"},"properties":{"area_sqkm":0.014,"evidence":0,"fcode":39004,"gnis_id":"00180361","hydro_category":"perennial","id":"nhd-72969570","name":"Ruby Lakes","water_class":"lake_pond"},"type":"Feature"},{"geometry":{"coordinates":[[[-106.969693,39.082701],[-106.969441,39.082787],[-106.969362,39.082851],[-106.969115,39.08309],[-106.968991,39.083236],[-106.968804,39.083572],[-106.9685,39.084271],[-106.968241,39.084924],[-106.968201,39.085177],[-106.968218,39.085348],[-106.968342,39.085662],[-106.968189,39.085971],[-106.968077,39.086108],[-106.968009,39.086163],[-106.967803,39.086247],[-106.967402,39.086344],[-106.967184,39.08642],[-106.966979,39.086532],[-106.96681,39.086679],[-106.966673,39.086762],[-106.96615,39.087077],[-106.965704,39.087265],[-106.965636,39.087284],[-106.965555,39.087285],[-106.965473,39.08726],[-106.965374,39.087009],[-106.965313,39.086893],[-106.965252,39.086795],[-106.96526,39.08666],[-106.965325,39.086505],[-106.965436,39.086332],[-106.965582,39.086177],[-106.966001,39.085863],[-106.966113,39.085753],[-106.96617,39.085698],[-106.966225,39.085607],[-106.966268,39.085507],[-106.966322,39.085344],[-106.966336,39.085292],[-106.96648,39.084783],[-106.966639,39.084285],[-106.966819,39.084102],[-106.966956,39.084036],[-106.967311,39.083913],[-106.967378,39.083831],[-106.967577,39.083503],[-106.967778,39.083256],[-106.967902,39.083155],[-106.968039,39.083072],[-106.968221,39.082979],[-106.968576,39.082837],[-106.968678,39.082773],[-106.968735,39.082727],[-106.968974,39.082596],[-106.969179,39.082512],[-106.969581,39.082388],[-106.969808,39.082258],[-106.969832,39.082267],[-106.969882,39.082401],[-106.969886,39.082545],[-106.969887,39.082581],[-106.969693,39.082701]]],"type":"Polygon"},"properties":{"area_sqkm":0.07226776,"evidence":0,"fcode":39009,"gnis_id":"00180258","hydro_category":"perennial","id":"nhd-72971138","name":"Crater Lake","water_class":"lake_pond"},"type":"Feature"},{"geometry":{"coordinates":[[[-106.943283,39.004468],[-106.943228,39.00455],[-106.943126,39.004651],[-106.942957,39.00478],[-106.942889,39.004853],[-106.942896,39.005105],[-106.942876,39.005195],[-106.942832,39.005286],[-106.942642,39.005524],[-106.942517,39.005607],[-106.942344,39.00561],[-106.942196,39.005675],[-106.942106,39.005749],[-106.94205,39.005822],[-106.941993,39.005859],[-106.941923,39.005842],[-106.94183,39.005789],[-106.94176,39.005764],[-106.941667,39.005765],[-106.941504,39.005714],[-106.941328,39.005591],[-106.940997,39.005326],[-106.940868,39.005256],[-106.940842,39.005166],[-106.940841,39.005112],[-106.940863,39.005058],[-106.940897,39.005039],[-106.940931,39.005038],[-106.941025,39.0051],[-106.94106,39.005108],[-106.941095,39.005108],[-106.941129,39.005098],[-106.941306,39.004789],[-106.941359,39.004617],[-106.941357,39.004545],[-106.941321,39.004491],[-106.941169,39.004449],[-106.94089,39.004381],[-106.940818,39.004284],[-106.941058,39.00418],[-106.94141,39.003958],[-106.941682,39.003756],[-106.941704,39.003746],[-106.941762,39.003745],[-106.941937,39.003823],[-106.94202,39.003894],[-106.942092,39.004001],[-106.942144,39.004189],[-106.94218,39.004243],[-106.942297,39.004322],[-106.942378,39.004312],[-106.942548,39.004201],[-106.942592,39.004119],[-106.942621,39.003902],[-106.942655,39.003875],[-106.942701,39.003865],[-106.942782,39.003863],[-106.942863,39.003889],[-106.942957,39.003933],[-106.943109,39.004011],[-106.943203,39.004082],[-106.943299,39.004224],[-106.943304,39.004395],[-106.943283,39.004468]]],"type":"Polygon"},"properties":{"area_sqkm":0.030588590000000002,"evidence":0,"fcode":39009,"gnis_id":"00180268","hydro_category":"perennial","id":"nhd-65879797","name":"Copper Lake","water_class":"lake_pond"},"type":"Feature"},{"geometry":{"coordinates":[[[-107.043596,39.011223],[-107.043497,39.011378],[-107.043442,39.01146],[-107.043423,39.01147],[-107.04335,39.011507],[-107.043225,39.011554],[-107.043029,39.011566],[-107.042866,39.011524],[-107.042772,39.011472],[-107.0427,39.011374],[-107.042662,39.011275],[-107.042555,39.011151],[-107.042506,39.011062],[-107.042423,39.010991],[-107.042294,39.010903],[-107.042177,39.01086],[-107.042026,39.010827],[-107.041944,39.010783],[-107.041885,39.010739],[-107.041835,39.010605],[-107.041795,39.010435],[-107.041746,39.010336],[-107.041687,39.010274],[-107.041324,39.010118],[-107.041276,39.010056],[-107.04125,39.009949],[-107.041246,39.009813],[-107.041196,39.00967],[-107.041216,39.009553],[-107.041283,39.009488],[-107.041432,39.009459],[-107.041535,39.009412],[-107.041648,39.00932],[-107.041779,39.009083],[-107.041809,39.008921],[-107.041942,39.008781],[-107.041966,39.008756],[-107.042057,39.008709],[-107.042126,39.008681],[-107.042163,39.008672],[-107.042252,39.008652],[-107.042392,39.008657],[-107.042414,39.008658],[-107.042484,39.008675],[-107.042577,39.008718],[-107.042671,39.00877],[-107.042743,39.00885],[-107.042852,39.009019],[-107.042924,39.009126],[-107.043394,39.009397],[-107.043725,39.009689],[-107.043821,39.009786],[-107.043905,39.009893],[-107.043919,39.009992],[-107.043968,39.01009],[-107.044153,39.010501],[-107.044168,39.010618],[-107.044114,39.010763],[-107.044059,39.010845],[-107.043946,39.010946],[-107.043825,39.01103],[-107.043799,39.011048],[-107.043614,39.011208],[-107.043596,39.011223]]],"type":"Polygon"},"properties":{"area_sqkm":0.04867333,"evidence":0,"fcode":39009,"gnis_id":"00175581","hydro_category":"perennial","id":"nhd-65883419","name":"Emerald Lake","water_class":"lake_pond"},"type":"Feature"},{"geometry":{"coordinates":[[[-106.883655,39.043433],[-106.883632,39.043416],[-106.883607,39.043362],[-106.883605,39.043281],[-106.883743,39.043261],[-106.88379,39.043278],[-106.883814,39.043305],[-106.883804,39.043359],[-106.883736,39.043432],[-106.883655,39.043433]]],"type":"Polygon"},"properties":{"area_sqkm":0,"evidence":0,"fcode":39004,"gnis_id":"00180278","hydro_category":"perennial","id":"nhd-72971158","name":"Silver Dollar Pond","water_class":"lake_pond"},"type":"Feature"},{"geometry":{"coordinates":[[[-106.627371,39.049211],[-106.627419,39.049291],[-106.627456,39.049347],[-106.627491,39.049398],[-106.627585,39.049478],[-106.62782,39.049637],[-106.627891,39.049735],[-106.627928,39.049816],[-106.627871,39.049871],[-106.627791,39.049908],[-106.627549,39.049929],[-106.62724,39.050051],[-106.627146,39.050007],[-106.627087,39.049954],[-106.626959,39.049892],[-106.626854,39.049867],[-106.626773,39.049832],[-106.62676,39.049769],[-106.6267,39.04968],[-106.626653,39.049653],[-106.62656,39.049628],[-106.626535,39.049538],[-106.626473,39.049368],[-106.626413,39.04926],[-106.626376,39.049171],[-106.626374,39.04909],[-106.626408,39.049035],[-106.626489,39.049034],[-106.626593,39.049041],[-106.626686,39.049067],[-106.626813,39.049056],[-106.626939,39.049037],[-106.627077,39.04899],[-106.627169,39.048988],[-106.627251,39.049014],[-106.62731,39.049068],[-106.627359,39.049184],[-106.627371,39.049211]]],"type":"Polygon"},"properties":{"area_sqkm":0.009000000000000001,"evidence":0,"fcode":39004,"gnis_id":"00180325","hydro_category":"perennial","id":"nhd-72974974","name":"Jack Lake","water_class":"lake_pond"},"type":"Feature"},{"geometry":{"coordinates":[[[-106.649427,39.250337],[-106.649312,39.250392],[-106.649186,39.250421],[-106.649011,39.250397],[-106.648707,39.250275],[-106.648636,39.250231],[-106.648445,39.249995],[-106.648302,39.249785],[-106.648275,39.249659],[-106.648372,39.249333],[-106.648724,39.248517],[-106.648962,39.248298],[-106.649063,39.248152],[-106.649297,39.247744],[-106.649376,39.247679],[-106.649537,39.247605],[-106.649646,39.247594],[-106.649676,39.247594],[-106.649871,39.247546],[-106.650216,39.247424],[-106.650274,39.247423],[-106.650356,39.247449],[-106.650391,39.247476],[-106.650429,39.247583],[-106.650411,39.247845],[-106.650466,39.248195],[-106.650542,39.248483],[-106.650498,39.249069],[-106.650403,39.249458],[-106.650327,39.249666],[-106.650293,39.24973],[-106.65018,39.24983],[-106.650093,39.249881],[-106.649889,39.249992],[-106.649427,39.250337]]],"type":"Polygon"},"properties":{"area_sqkm":0.044000000000000004,"evidence":0,"fcode":39004,"gnis_id":"00202677","hydro_category":"perennial","id":"nhd-72980544","name":"Sawyer Lake","water_class":"lake_pond"},"type":"Feature"},{"geometry":{"coordinates":[[[-106.667309,39.162691],[-106.667171,39.162738],[-106.666998,39.16275],[-106.666916,39.162733],[-106.666565,39.162585],[-106.66646,39.162532],[-106.666366,39.162479],[-106.66633,39.162417],[-106.666259,39.16185],[-106.666255,39.161679],[-106.666218,39.161599],[-106.66617,39.161536],[-106.665982,39.161395],[-106.665958,39.161359],[-106.665939,39.161044],[-106.665903,39.160999],[-106.666237,39.16095],[-106.666411,39.160938],[-106.666457,39.160946],[-106.666668,39.161033],[-106.666889,39.161075],[-106.667087,39.161127],[-106.667204,39.161197],[-106.667263,39.161241],[-106.667359,39.161384],[-106.66748,39.161617],[-106.667583,39.162075],[-106.667599,39.162264],[-106.667578,39.162345],[-106.667534,39.162427],[-106.667422,39.162581],[-106.667331,39.16267],[-106.667309,39.162691]]],"type":"Polygon"},"properties":{"area_sqkm":0.02,"evidence":0,"fcode":39004,"gnis_id":"00180088","hydro_category":"perennial","id":"nhd-72981176","name":"Midway Lake","water_class":"lake_pond"},"type":"Feature"},{"geometry":{"coordinates":[[[-106.750579,39.017034],[-106.750504,39.01681],[-106.750499,39.016621],[-106.750507,39.016467],[-106.750527,39.016332],[-106.750559,39.016241],[-106.750602,39.016141],[-106.750828,39.015922],[-106.750895,39.015795],[-106.750957,39.015514],[-106.75102,39.015261],[-106.751119,39.015043],[-106.751252,39.014816],[-106.751399,39.014697],[-106.751501,39.014641],[-106.751673,39.014585],[-106.75196,39.014517],[-106.752133,39.014497],[-106.752306,39.014494],[-106.752618,39.01448],[-106.75278,39.014487],[-106.752977,39.014529],[-106.753045,39.014552],[-106.753187,39.014598],[-106.753339,39.014677],[-106.753538,39.0148],[-106.754007,39.015081],[-106.754172,39.015196],[-106.754228,39.015261],[-106.754366,39.015421],[-106.754433,39.015498],[-106.75453,39.015677],[-106.754593,39.015874],[-106.754597,39.016054],[-106.754544,39.016235],[-106.754454,39.016327],[-106.754289,39.016406],[-106.754145,39.016476],[-106.752977,39.016881],[-106.752587,39.016995],[-106.752196,39.017064],[-106.751366,39.01713],[-106.751079,39.017171],[-106.750825,39.017192],[-106.75072,39.017149],[-106.750602,39.017056],[-106.750579,39.017034]]],"type":"Polygon"},"properties":{"area_sqkm":0.07685604,"evidence":0,"fcode":39009,"gnis_id":"00202694","hydro_category":"perennial","id":"nhd-65885841","name":"Taylor Lake","water_class":"lake_pond"},"type":"Feature"},{"geometry":{"coordinates":[[[-106.721256,39.116648],[-106.721162,39.116586],[-106.720988,39.116535],[-106.720859,39.116483],[-106.720765,39.11643],[-106.720706,39.116386],[-106.720622,39.116261],[-106.720476,39.115939],[-106.720423,39.115687],[-106.720349,39.115499],[-106.720169,39.115231],[-106.720108,39.115097],[-106.72007,39.114935],[-106.720043,39.114801],[-106.719958,39.114631],[-106.719851,39.114515],[-106.719745,39.114427],[-106.719673,39.114338],[-106.719647,39.114185],[-106.719669,39.114148],[-106.719703,39.114121],[-106.719783,39.114093],[-106.719876,39.114091],[-106.719981,39.114135],[-106.720193,39.114285],[-106.720345,39.114346],[-106.720495,39.114362],[-106.720794,39.114285],[-106.721084,39.114326],[-106.721293,39.114332],[-106.721512,39.114337],[-106.721813,39.114315],[-106.722031,39.114258],[-106.72218,39.114192],[-106.722341,39.114163],[-106.722411,39.11418],[-106.72247,39.114242],[-106.722484,39.114323],[-106.722477,39.114521],[-106.722444,39.114603],[-106.722366,39.114703],[-106.722241,39.114804],[-106.722081,39.114906],[-106.722003,39.114988],[-106.721902,39.115143],[-106.721827,39.11536],[-106.721761,39.115514],[-106.721661,39.115678],[-106.721454,39.116194],[-106.721412,39.116375],[-106.721437,39.116465],[-106.721428,39.116582],[-106.721395,39.116646],[-106.721338,39.116674],[-106.721256,39.116648]]],"type":"Polygon"},"properties":{"area_sqkm":0.035,"evidence":0,"fcode":39004,"gnis_id":"00180308","hydro_category":"perennial","id":"nhd-72974918","name":"Weller Lake","water_class":"lake_pond"},"type":"Feature"},{"geometry":{"coordinates":[[[-106.637449,39.047781],[-106.6376,39.047842],[-106.637752,39.047921],[-106.637777,39.048002],[-106.637806,39.048227],[-106.637853,39.048271],[-106.637935,39.048324],[-106.638006,39.048377],[-106.638042,39.048458],[-106.638205,39.049023],[-106.638196,39.049113],[-106.637985,39.049468],[-106.637965,39.049603],[-106.637921,39.049712],[-106.637819,39.049803],[-106.637539,39.050177],[-106.637482,39.050205],[-106.637376,39.050134],[-106.637305,39.050072],[-106.637032,39.049769],[-106.636937,39.049645],[-106.6369,39.049555],[-106.6369,39.049528],[-106.637049,39.049463],[-106.637058,39.049391],[-106.637035,39.049364],[-106.636919,39.049366],[-106.636745,39.049341],[-106.636674,39.049243],[-106.63666,39.049171],[-106.63668,39.048999],[-106.636624,39.048577],[-106.636457,39.048345],[-106.636408,39.048246],[-106.636407,39.048192],[-106.63645,39.048075],[-106.63654,39.047974],[-106.636676,39.047846],[-106.636814,39.047808],[-106.636976,39.047806],[-106.637068,39.047823],[-106.637172,39.047821],[-106.637241,39.047784],[-106.637356,39.047756],[-106.637446,39.04778],[-106.637449,39.047781]]],"type":"Polygon"},"properties":{"area_sqkm":0.027,"evidence":0,"fcode":39004,"gnis_id":"00180334","hydro_category":"perennial","id":"nhd-72974972","name":"Truro Lake","water_class":"lake_pond"},"type":"Feature"},{"geometry":{"coordinates":[[[-106.96526,39.208556],[-106.965148,39.208693],[-106.965091,39.208739],[-106.964954,39.208795],[-106.964861,39.208806],[-106.964629,39.208801],[-106.964443,39.208741],[-106.964113,39.208566],[-106.963688,39.208249],[-106.963627,39.20816],[-106.963602,39.208088],[-106.963499,39.207703],[-106.963538,39.207044],[-106.963638,39.206872],[-106.963783,39.206698],[-106.96385,39.206656],[-106.963897,39.206633],[-106.964276,39.206491],[-106.964345,39.206481],[-106.964611,39.206459],[-106.965086,39.206487],[-106.965168,39.20653],[-106.965238,39.206529],[-106.965612,39.20664],[-106.96573,39.206737],[-106.965779,39.206826],[-106.965805,39.206934],[-106.965731,39.207197],[-106.96562,39.20737],[-106.965566,39.207497],[-106.965613,39.207946],[-106.965575,39.208244],[-106.96552,39.208344],[-106.965502,39.20836],[-106.96526,39.208556]]],"type":"Polygon"},"properties":{"area_sqkm":0.04,"evidence":0,"fcode":39004,"gnis_id":null,"hydro_category":"perennial","id":"nhd-72968834","name":null,"water_class":"lake_pond"},"type":"Feature"},{"geometry":{"coordinates":[[[-106.56975,39.142368],[-106.569751,39.142413],[-106.569742,39.14253],[-106.569699,39.142657],[-106.569619,39.142712],[-106.569137,39.14289],[-106.568864,39.143091],[-106.568809,39.143209],[-106.568811,39.143326],[-106.568766,39.143399],[-106.568664,39.143482],[-106.568597,39.143582],[-106.568509,39.143772],[-106.568485,39.143849],[-106.568476,39.143881],[-106.568489,39.143952],[-106.568491,39.144025],[-106.568369,39.14426],[-106.568246,39.144442],[-106.568065,39.144625],[-106.567848,39.144754],[-106.567617,39.144802],[-106.567213,39.144817],[-106.566945,39.144757],[-106.566746,39.144652],[-106.566605,39.144527],[-106.566544,39.144393],[-106.566494,39.144232],[-106.566545,39.144042],[-106.566647,39.143851],[-106.56684,39.143659],[-106.567432,39.143237],[-106.567741,39.143061],[-106.568349,39.142819],[-106.568532,39.142763],[-106.568751,39.142715],[-106.569027,39.142621],[-106.569657,39.142342],[-106.569738,39.142341],[-106.56975,39.142368]]],"type":"Polygon"},"properties":{"area_sqkm":0.032,"evidence":0,"fcode":39004,"gnis_id":"00180103","hydro_category":"perennial","id":"nhd-72972336","name":"Independence Lake","water_class":"lake_pond"},"type":"Feature"},{"geometry":{"coordinates":[[[-106.626864,39.021582],[-106.62699,39.021509],[-106.627034,39.021445],[-106.627056,39.021364],[-106.627018,39.021229],[-106.626981,39.021139],[-106.626898,39.021032],[-106.62662,39.020991],[-106.626456,39.020903],[-106.626403,39.020625],[-106.626398,39.020391],[-106.626439,39.020147],[-106.626526,39.019947],[-106.626706,39.019701],[-106.626864,39.019537],[-106.62709,39.019345],[-106.627281,39.019126],[-106.627304,39.019116],[-106.627474,39.018961],[-106.627634,39.018878],[-106.627771,39.018822],[-106.627843,39.018798],[-106.627863,39.018793],[-106.627944,39.01881],[-106.627968,39.018837],[-106.627946,39.0189],[-106.627821,39.018965],[-106.627683,39.019012],[-106.627627,39.019067],[-106.627594,39.019157],[-106.627596,39.019221],[-106.627608,39.019256],[-106.627713,39.0193],[-106.627841,39.019334],[-106.62797,39.019423],[-106.628006,39.019485],[-106.628025,39.019818],[-106.628074,39.019917],[-106.628191,39.020005],[-106.628238,39.020031],[-106.628366,39.020066],[-106.628678,39.020088],[-106.628748,39.020123],[-106.628783,39.02015],[-106.628797,39.020222],[-106.628764,39.020294],[-106.62849,39.020442],[-106.628422,39.020525],[-106.628412,39.020588],[-106.628122,39.021015],[-106.627976,39.021216],[-106.627875,39.021316],[-106.627647,39.021481],[-106.627432,39.021656],[-106.627319,39.021774],[-106.62717,39.021821],[-106.627008,39.021824],[-106.626823,39.021781],[-106.626752,39.021737],[-106.626751,39.021683],[-106.626761,39.021629],[-106.626864,39.021582]]],"type":"Polygon"},"properties":{"area_sqkm":0.036000000000000004,"evidence":0,"fcode":39004,"gnis_id":"00180326","hydro_category":"perennial","id":"nhd-72975004","name":"Anderson Lake","water_class":"lake_pond"},"type":"Feature"},{"geometry":{"coordinates":[[[-106.88715,39.199261],[-106.887148,39.199216],[-106.887182,39.199162],[-106.887329,39.199033],[-106.887477,39.19895],[-106.887947,39.19878],[-106.888407,39.198646],[-106.888557,39.198635],[-106.888615,39.198643],[-106.888627,39.198661],[-106.888721,39.198686],[-106.888767,39.198685],[-106.888847,39.19863],[-106.888999,39.1987],[-106.88913,39.198824],[-106.889191,39.198958],[-106.889217,39.199075],[-106.889207,39.199111],[-106.889278,39.199191],[-106.88955,39.199375],[-106.889787,39.19957],[-106.889825,39.199722],[-106.88992,39.199793],[-106.889945,39.199874],[-106.889912,39.199928],[-106.889599,39.199906],[-106.889237,39.199795],[-106.888616,39.199544],[-106.888255,39.199442],[-106.888022,39.199418],[-106.887873,39.199448],[-106.887769,39.199476],[-106.887587,39.199578],[-106.887495,39.199607],[-106.887425,39.199599],[-106.887366,39.199555],[-106.887328,39.199448],[-106.88715,39.199261]]],"type":"Polygon"},"properties":{"area_sqkm":0.01764992,"evidence":0,"fcode":39009,"gnis_id":"00180017","hydro_category":"perennial","id":"nhd-72968848","name":"Marolt Reservoir","water_class":"lake_pond"},"type":"Feature"},{"geometry":{"coordinates":[[[-106.618364,39.157723],[-106.618135,39.157834],[-106.617961,39.157846],[-106.617614,39.157841],[-106.617487,39.157852],[-106.617371,39.157854],[-106.61729,39.157837],[-106.617045,39.157732],[-106.616926,39.157626],[-106.616878,39.157536],[-106.6169,39.157473],[-106.616944,39.1574],[-106.616977,39.157319],[-106.616964,39.157247],[-106.616914,39.157094],[-106.616901,39.157013],[-106.616911,39.156968],[-106.616945,39.156914],[-106.61707,39.156831],[-106.617311,39.156755],[-106.617543,39.156761],[-106.617858,39.156883],[-106.618068,39.156925],[-106.618253,39.156923],[-106.618497,39.156964],[-106.618602,39.15699],[-106.61865,39.157079],[-106.618654,39.157241],[-106.618591,39.157549],[-106.618523,39.157622],[-106.618364,39.157723]]],"type":"Polygon"},"properties":{"area_sqkm":0.015000000000000001,"evidence":0,"fcode":39004,"gnis_id":"00180098","hydro_category":"perennial","id":"nhd-72972326","name":"Scott Lake","water_class":"lake_pond"},"type":"Feature"},{"geometry":{"coordinates":[[[-106.843286,39.029283],[-106.843375,39.029129],[-106.843408,39.029083],[-106.843383,39.028985],[-106.843288,39.028887],[-106.843194,39.028843],[-106.843032,39.028837],[-106.842871,39.028866],[-106.842687,39.028887],[-106.842467,39.028864],[-106.84228,39.028777],[-106.84215,39.02868],[-106.841935,39.028386],[-106.841757,39.028217],[-106.841651,39.02812],[-106.841579,39.028031],[-106.841494,39.02787],[-106.841418,39.027628],[-106.841359,39.027566],[-106.841207,39.027496],[-106.841055,39.027426],[-106.840925,39.027329],[-106.840866,39.027249],[-106.840804,39.027106],[-106.840894,39.027024],[-106.84118,39.026893],[-106.841385,39.026791],[-106.841487,39.026726],[-106.8416,39.026616],[-106.841725,39.026524],[-106.841873,39.026467],[-106.842011,39.026429],[-106.842172,39.026409],[-106.842276,39.026407],[-106.842426,39.026414],[-106.842624,39.026465],[-106.842788,39.026543],[-106.843,39.02672],[-106.843176,39.026825],[-106.84334,39.026913],[-106.843435,39.02701],[-106.843497,39.027154],[-106.843582,39.027305],[-106.843653,39.027385],[-106.843843,39.027572],[-106.844065,39.027667],[-106.844182,39.027737],[-106.844381,39.027824],[-106.844533,39.027912],[-106.844638,39.027946],[-106.844823,39.027971],[-106.844928,39.028005],[-106.845118,39.0282],[-106.845316,39.02826],[-106.845492,39.028356],[-106.845564,39.028454],[-106.845578,39.028562],[-106.845557,39.028644],[-106.845526,39.02877],[-106.845459,39.028853],[-106.845368,39.028917],[-106.845138,39.028975],[-106.84491,39.029059],[-106.843681,39.029358],[-106.843417,39.029416],[-106.843325,39.029418],[-106.843289,39.029382],[-106.843286,39.029283]]],"type":"Polygon"},"properties":{"area_sqkm":0.069,"evidence":0,"fcode":39004,"gnis_id":"00180298","hydro_category":"perennial","id":"nhd-72968370","name":"Cathedral Lake","water_class":"lake_pond"},"type":"Feature"},{"geometry":{"coordinates":[[[-106.587309,39.027675],[-106.587465,39.027972],[-106.587662,39.028477],[-106.587634,39.02862],[-106.587584,39.028658],[-106.587486,39.028686],[-106.587359,39.028642],[-106.5873,39.028603],[-106.587183,39.028527],[-106.587106,39.028444],[-106.586993,39.028379],[-106.586887,39.028269],[-106.58688,39.028109],[-106.586901,39.027928],[-106.586957,39.027791],[-106.587049,39.027692],[-106.587105,39.027643],[-106.587197,39.027626],[-106.587309,39.027675]]],"type":"Polygon"},"properties":{"area_sqkm":0.005,"evidence":0,"fcode":39004,"gnis_id":"00180356","hydro_category":"perennial","id":"nhd-133049530","name":"Henschel Lake","water_class":"lake_pond"},"type":"Feature"},{"geometry":{"coordinates":[[[-106.966032,39.109884],[-106.965781,39.110005],[-106.965464,39.110254],[-106.96535,39.110319],[-106.965179,39.110385],[-106.964822,39.110454],[-106.964672,39.110456],[-106.964522,39.110486],[-106.964293,39.110553],[-106.963923,39.110577],[-106.963784,39.11057],[-106.963611,39.110591],[-106.963359,39.110668],[-106.963255,39.110669],[-106.963057,39.11061],[-106.962961,39.110512],[-106.962856,39.110478],[-106.962658,39.110427],[-106.962611,39.110374],[-106.962561,39.110257],[-106.962526,39.110231],[-106.962397,39.110188],[-106.962305,39.11019],[-106.962189,39.110165],[-106.962048,39.110113],[-106.961884,39.110026],[-106.961802,39.109982],[-106.961709,39.109974],[-106.961651,39.109948],[-106.961632,39.109881],[-106.961625,39.109859],[-106.961583,39.109616],[-106.961602,39.109436],[-106.961689,39.109263],[-106.961834,39.109062],[-106.961911,39.108926],[-106.961945,39.10888],[-106.96199,39.108834],[-106.962058,39.108788],[-106.962229,39.108695],[-106.962435,39.108611],[-106.962961,39.108422],[-106.963169,39.108418],[-106.963298,39.108461],[-106.96345,39.108531],[-106.963555,39.108565],[-106.963613,39.108555],[-106.963773,39.108498],[-106.963922,39.108433],[-106.964129,39.108393],[-106.964476,39.108396],[-106.964602,39.108358],[-106.964704,39.108293],[-106.964865,39.108272],[-106.964982,39.108289],[-106.965121,39.108331],[-106.96554,39.108414],[-106.965633,39.108422],[-106.965827,39.108328],[-106.965976,39.108281],[-106.966103,39.108288],[-106.966373,39.108409],[-106.966478,39.108444],[-106.966581,39.108433],[-106.966697,39.10844],[-106.966792,39.108501],[-106.966793,39.108537],[-106.966736,39.108583],[-106.966577,39.108676],[-106.966521,39.108749],[-106.966522,39.108785],[-106.966569,39.10882],[-106.966604,39.108829],[-106.966766,39.108817],[-106.966848,39.108861],[-106.966861,39.108924],[-106.966852,39.108996],[-106.96683,39.109068],[-106.966632,39.109432],[-106.966531,39.109542],[-106.966406,39.109625],[-106.966293,39.109717],[-106.96625,39.109817],[-106.966032,39.109884]]],"type":"Polygon"},"properties":{"area_sqkm":0.08744415,"evidence":0,"fcode":39009,"gnis_id":"00180255","hydro_category":"perennial","id":"nhd-72971118","name":"Willow Lake","water_class":"lake_pond"},"type":"Feature"},{"geometry":{"coordinates":[[[-106.75178,39.171723],[-106.751789,39.171624],[-106.751823,39.171588],[-106.75196,39.171531],[-106.752006,39.171495],[-106.752094,39.171322],[-106.752136,39.171141],[-106.752295,39.171031],[-106.752334,39.170733],[-106.752415,39.170741],[-106.752513,39.170928],[-106.752687,39.170971],[-106.752954,39.170976],[-106.753292,39.171079],[-106.753339,39.171096],[-106.753516,39.171265],[-106.753668,39.171316],[-106.753706,39.171442],[-106.753751,39.171838],[-106.753811,39.171936],[-106.754001,39.17214],[-106.75403,39.172374],[-106.754071,39.172626],[-106.754014,39.172654],[-106.753958,39.172727],[-106.753815,39.173017],[-106.753758,39.17309],[-106.753738,39.173217],[-106.753757,39.173496],[-106.753748,39.173595],[-106.753775,39.173757],[-106.753766,39.173865],[-106.753481,39.17404],[-106.753379,39.174123],[-106.753299,39.174151],[-106.753105,39.174271],[-106.753047,39.174281],[-106.752989,39.174264],[-106.752852,39.173879],[-106.752484,39.173506],[-106.752265,39.173095],[-106.75224,39.173014],[-106.752168,39.172907],[-106.752051,39.172864],[-106.751994,39.172882],[-106.751974,39.173027],[-106.75194,39.173054],[-106.751847,39.173047],[-106.751799,39.172957],[-106.751793,39.172723],[-106.751867,39.172425],[-106.751873,39.172217],[-106.75178,39.171723]]],"type":"Polygon"},"properties":{"area_sqkm":0.049,"evidence":0,"fcode":39004,"gnis_id":"00180070","hydro_category":"perennial","id":"nhd-72962710","name":"Warren Lake","water_class":"lake_pond"},"type":"Feature"},{"geometry":{"coordinates":[[[-106.603325,39.175348],[-106.603361,39.175384],[-106.603362,39.175456],[-106.603352,39.175537],[-106.603275,39.175691],[-106.603289,39.17579],[-106.603348,39.175861],[-106.60342,39.17595],[-106.603424,39.176122],[-106.603448,39.176184],[-106.603554,39.176273],[-106.603684,39.176352],[-106.603731,39.176415],[-106.603721,39.176478],[-106.603479,39.176526],[-106.603386,39.176519],[-106.603306,39.176529],[-106.603213,39.176521],[-106.603166,39.176495],[-106.603049,39.176451],[-106.602956,39.176434],[-106.602864,39.176436],[-106.602771,39.176437],[-106.602689,39.176411],[-106.602619,39.176367],[-106.602502,39.176324],[-106.602351,39.176299],[-106.60227,39.176282],[-106.602199,39.176211],[-106.602127,39.17613],[-106.602091,39.176041],[-106.602145,39.175878],[-106.602131,39.175779],[-106.602141,39.175698],[-106.602185,39.175634],[-106.602255,39.175615],[-106.60244,39.175649],[-106.602637,39.175628],[-106.602776,39.175644],[-106.602892,39.175633],[-106.602959,39.17556],[-106.602958,39.175479],[-106.602933,39.175408],[-106.602978,39.175344],[-106.603069,39.175307],[-106.603267,39.175322],[-106.603325,39.175348]]],"type":"Polygon"},"properties":{"area_sqkm":0.011000000000000001,"evidence":0,"fcode":39004,"gnis_id":"00196669","hydro_category":"perennial","id":"nhd-72972310","name":"Sioux Lake","water_class":"lake_pond"},"type":"Feature"},{"geometry":{"coordinates":[[[-107.009583,39.235442],[-107.009294,39.235465],[-107.009017,39.235515],[-107.008739,39.23552],[-107.008496,39.235506],[-107.008344,39.235463],[-107.008262,39.23542],[-107.00826,39.235357],[-107.008304,39.235284],[-107.008349,39.235229],[-107.008521,39.235172],[-107.008693,39.235124],[-107.008798,39.23514],[-107.009067,39.235235],[-107.009196,39.235296],[-107.009336,39.235329],[-107.009569,39.23537],[-107.009593,39.235406],[-107.009583,39.235442]]],"type":"Polygon"},"properties":{"area_sqkm":0.00317863,"evidence":0,"fcode":39004,"gnis_id":"00201099","hydro_category":"perennial","id":"nhd-72964542","name":"Elk Creek Reservoir Number 2","water_class":"lake_pond"},"type":"Feature"},{"geometry":{"coordinates":[[[-106.82893,39.05673],[-106.828791,39.056705],[-106.828744,39.056678],[-106.828707,39.056607],[-106.828725,39.05639],[-106.828779,39.056236],[-106.828834,39.056154],[-106.828995,39.056098],[-106.829179,39.056059],[-106.829688,39.056078],[-106.83039,39.055977],[-106.830494,39.055975],[-106.830563,39.055974],[-106.830657,39.056009],[-106.830762,39.05607],[-106.830847,39.056213],[-106.830861,39.056339],[-106.830842,39.056465],[-106.830786,39.056538],[-106.830729,39.056575],[-106.830649,39.056622],[-106.830375,39.056761],[-106.830146,39.056819],[-106.829927,39.056849],[-106.829707,39.056835],[-106.829545,39.05681],[-106.829359,39.056768],[-106.829196,39.056725],[-106.829126,39.056727],[-106.829023,39.056737],[-106.82893,39.05673]]],"type":"Polygon"},"properties":{"area_sqkm":0.014,"evidence":0,"fcode":39004,"gnis_id":"00180286","hydro_category":"perennial","id":"nhd-72968354","name":"American Lake","water_class":"lake_pond"},"type":"Feature"},{"geometry":{"coordinates":[[[-107.012727,39.132089],[-107.012882,39.132249],[-107.01301,39.132413],[-107.013307,39.132926],[-107.013344,39.133015],[-107.013358,39.133123],[-107.013328,39.133277],[-107.013275,39.13344],[-107.013199,39.133622],[-107.013071,39.134011],[-107.012974,39.134247],[-107.012884,39.134357],[-107.01277,39.134413],[-107.012516,39.134426],[-107.012236,39.13435],[-107.012095,39.13428],[-107.012013,39.134219],[-107.011965,39.134175],[-107.011794,39.133844],[-107.011756,39.133746],[-107.011751,39.133566],[-107.011777,39.133268],[-107.0118,39.133213],[-107.011832,39.133159],[-107.011935,39.13313],[-107.012005,39.133138],[-107.012145,39.133171],[-107.012192,39.133207],[-107.012277,39.13334],[-107.012407,39.133455],[-107.012489,39.13349],[-107.01257,39.133488],[-107.012627,39.13346],[-107.012672,39.133415],[-107.012715,39.133279],[-107.012639,39.133073],[-107.012506,39.132868],[-107.012422,39.132743],[-107.012291,39.132601],[-107.012207,39.132522],[-107.012157,39.132387],[-107.012188,39.132261],[-107.012233,39.132215],[-107.01229,39.132178],[-107.012359,39.13215],[-107.01267,39.132117],[-107.012685,39.132108],[-107.012727,39.132089]]],"type":"Polygon"},"properties":{"area_sqkm":0.022000000000000002,"evidence":0,"fcode":39004,"gnis_id":null,"hydro_category":"perennial","id":"nhd-72964646","name":null,"water_class":"lake_pond"},"type":"Feature"},{"geometry":{"coordinates":[[[-106.595654,39.050848],[-106.595548,39.050867],[-106.595463,39.050895],[-106.595364,39.050906],[-106.595284,39.050925],[-106.595237,39.05093],[-106.59511,39.05095],[-106.595011,39.050992],[-106.594926,39.051033],[-106.59489,39.051065],[-106.594819,39.051179],[-106.594719,39.051288],[-106.594669,39.051343],[-106.594555,39.051408],[-106.594449,39.051432],[-106.594309,39.051447],[-106.594188,39.051467],[-106.594061,39.051473],[-106.593935,39.051448],[-106.593808,39.051463],[-106.593717,39.051464],[-106.593604,39.051461],[-106.593477,39.051472],[-106.593315,39.051474],[-106.593202,39.051485],[-106.593082,39.051486],[-106.592999,39.051402],[-106.592993,39.051321],[-106.593001,39.051231],[-106.593023,39.0511],[-106.593045,39.051059],[-106.593074,39.050991],[-106.593111,39.050882],[-106.593147,39.050787],[-106.59319,39.050706],[-106.593205,39.050638],[-106.593192,39.05057],[-106.593214,39.05048],[-106.593236,39.050421],[-106.593279,39.050339],[-106.593329,39.050285],[-106.593365,39.050235],[-106.593422,39.050198],[-106.593514,39.05012],[-106.593515,39.050088],[-106.593523,39.050016],[-106.593473,39.049994],[-106.59351,39.049904],[-106.593519,39.04989],[-106.593532,39.049849],[-106.593561,39.049781],[-106.593652,39.049749],[-106.593794,39.049729],[-106.593963,39.049713],[-106.594132,39.049711],[-106.594309,39.049695],[-106.594372,39.049689],[-106.594519,39.049714],[-106.594773,39.049738],[-106.594955,39.049785],[-106.595067,39.049833],[-106.595165,39.049872],[-106.595235,39.049912],[-106.595305,39.049947],[-106.595354,39.049978],[-106.595389,39.050009],[-106.595396,39.050031],[-106.595416,39.05013],[-106.595416,39.050157],[-106.595415,39.050238],[-106.59542,39.050355],[-106.59542,39.050414],[-106.595433,39.050477],[-106.59546,39.050557],[-106.595544,39.050619],[-106.595572,39.050655],[-106.595641,39.050722],[-106.595689,39.050802],[-106.595677,39.050818],[-106.595654,39.050848]]],"type":"Polygon"},"properties":{"area_sqkm":0.033,"evidence":0,"fcode":39004,"gnis_id":"00180351","hydro_category":"perennial","id":"nhd-72969564","name":"Grizzly Lake","water_class":"lake_pond"},"type":"Feature"},{"geometry":{"coordinates":[[[-106.616505,39.014635],[-106.616504,39.014662],[-106.61649,39.014712],[-106.61644,39.014758],[-106.616404,39.01479],[-106.61634,39.01484],[-106.616263,39.014877],[-106.616149,39.014942],[-106.616078,39.014979],[-106.615958,39.015026],[-106.615866,39.01505],[-106.615774,39.015073],[-106.615676,39.015079],[-106.615577,39.015076],[-106.615486,39.015068],[-106.615423,39.015051],[-106.615381,39.015038],[-106.615311,39.015008],[-106.615276,39.014995],[-106.615234,39.014973],[-106.615208,39.014914],[-106.615186,39.014861],[-106.615264,39.01481],[-106.615349,39.014777],[-106.615384,39.014705],[-106.615399,39.01465],[-106.615428,39.014555],[-106.615464,39.014501],[-106.615521,39.014437],[-106.615627,39.014422],[-106.615719,39.014434],[-106.615789,39.014456],[-106.6158,39.014469],[-106.61581,39.014483],[-106.61583,39.014523],[-106.61586,39.014595],[-106.615871,39.014644],[-106.615892,39.014689],[-106.615962,39.014724],[-106.616039,39.014723],[-106.616082,39.014682],[-106.616125,39.01464],[-106.616188,39.014599],[-106.61628,39.014562],[-106.616357,39.014574],[-106.616428,39.014591],[-106.616491,39.014608],[-106.616504,39.014626],[-106.616505,39.014635]]],"type":"Polygon"},"properties":{"area_sqkm":0.005,"evidence":0,"fcode":39004,"gnis_id":"00180361","hydro_category":"perennial","id":"nhd-72969566","name":"Ruby Lakes","water_class":"lake_pond"},"type":"Feature"},{"geometry":{"coordinates":[[[-106.94813,39.095615],[-106.948098,39.095733],[-106.948066,39.095814],[-106.947987,39.095897],[-106.947591,39.096201],[-106.947477,39.096266],[-106.947396,39.096276],[-106.947059,39.096218],[-106.947025,39.096219],[-106.946945,39.096265],[-106.946866,39.09633],[-106.946788,39.096439],[-106.94671,39.096567],[-106.946703,39.096729],[-106.94672,39.096909],[-106.946736,39.097089],[-106.946729,39.097224],[-106.946666,39.097468],[-106.94666,39.097667],[-106.946615,39.097704],[-106.946442,39.097733],[-106.946025,39.097704],[-106.94583,39.097762],[-106.945807,39.09778],[-106.945738,39.09779],[-106.945231,39.097835],[-106.944989,39.097884],[-106.944887,39.097949],[-106.944841,39.097958],[-106.944633,39.097962],[-106.944438,39.09801],[-106.944253,39.098022],[-106.944149,39.098033],[-106.944001,39.098099],[-106.94392,39.098109],[-106.943851,39.09811],[-106.943734,39.098067],[-106.943513,39.098026],[-106.943107,39.097996],[-106.942578,39.098086],[-106.942393,39.098089],[-106.942242,39.098074],[-106.942021,39.098032],[-106.941764,39.097929],[-106.941717,39.097893],[-106.941693,39.097858],[-106.941748,39.097767],[-106.941815,39.097684],[-106.941952,39.097619],[-106.942113,39.09758],[-106.942309,39.097568],[-106.94268,39.09758],[-106.942795,39.097551],[-106.942897,39.097504],[-106.942942,39.097458],[-106.942987,39.097395],[-106.943063,39.097222],[-106.943226,39.097247],[-106.943341,39.097245],[-106.943445,39.097234],[-106.943628,39.097168],[-106.943707,39.097094],[-106.943819,39.096966],[-106.94399,39.096855],[-106.944113,39.096727],[-106.944214,39.096599],[-106.944372,39.09648],[-106.944498,39.096414],[-106.944924,39.096371],[-106.945626,39.096242],[-106.945994,39.096155],[-106.946165,39.096089],[-106.946883,39.09569],[-106.947141,39.095415],[-106.947254,39.095314],[-106.947402,39.095231],[-106.947494,39.095202],[-106.947586,39.095191],[-106.947621,39.095209],[-106.947622,39.095245],[-106.947567,39.095336],[-106.947569,39.095399],[-106.947639,39.095452],[-106.947675,39.095469],[-106.947788,39.095386],[-106.947846,39.095394],[-106.947905,39.095447],[-106.947963,39.095446],[-106.948126,39.095498],[-106.94813,39.095615]]],"type":"Polygon"},"properties":{"area_sqkm":0.06517674,"evidence":0,"fcode":39009,"gnis_id":"00180260","hydro_category":"perennial","id":"nhd-72971124","name":"Maroon Lake","water_class":"lake_pond"},"type":"Feature"},{"geometry":{"coordinates":[[[-106.747038,39.171416],[-106.747048,39.171371],[-106.747059,39.171353],[-106.747094,39.171334],[-106.74714,39.171333],[-106.747198,39.171342],[-106.747361,39.171384],[-106.747547,39.171399],[-106.747628,39.171416],[-106.74794,39.171385],[-106.748044,39.171365],[-106.748364,39.171207],[-106.748845,39.171002],[-106.7492,39.170843],[-106.749315,39.170805],[-106.749395,39.170795],[-106.749478,39.170812],[-106.749581,39.170819],[-106.749675,39.170863],[-106.749874,39.170959],[-106.749958,39.171057],[-106.749982,39.171111],[-106.749998,39.171273],[-106.749987,39.171327],[-106.749977,39.171381],[-106.749859,39.171734],[-106.749814,39.171807],[-106.749769,39.171853],[-106.749564,39.171973],[-106.749323,39.172085],[-106.749208,39.172122],[-106.748923,39.17228],[-106.748866,39.172326],[-106.748703,39.172526],[-106.748653,39.17259],[-106.748619,39.172618],[-106.74855,39.172646],[-106.748389,39.172675],[-106.748215,39.172687],[-106.748111,39.172661],[-106.74804,39.172635],[-106.747939,39.172538],[-106.747863,39.172467],[-106.747756,39.172387],[-106.747662,39.172326],[-106.747498,39.172238],[-106.747242,39.172197],[-106.747161,39.17218],[-106.747114,39.172145],[-106.747077,39.172064],[-106.747035,39.171768],[-106.747035,39.17175],[-106.747038,39.171416]]],"type":"Polygon"},"properties":{"area_sqkm":0.032,"evidence":0,"fcode":39004,"gnis_id":"00180079","hydro_category":"perennial","id":"nhd-72981166","name":"Warren Lakes","water_class":"lake_pond"},"type":"Feature"},{"geometry":{"coordinates":[[[-106.970551,39.264004],[-106.970543,39.264139],[-106.970386,39.264331],[-106.970273,39.264414],[-106.970253,39.264455],[-106.970152,39.264659],[-106.970002,39.264698],[-106.969804,39.264638],[-106.969604,39.264542],[-106.969555,39.264453],[-106.96961,39.264326],[-106.969788,39.264116],[-106.969835,39.264061],[-106.970002,39.263869],[-106.970293,39.263477],[-106.970498,39.263347],[-106.970684,39.263371],[-106.970813,39.263432],[-106.970861,39.263503],[-106.97082,39.263684],[-106.970628,39.263876],[-106.97061,39.263908],[-106.970551,39.264004]]],"type":"Polygon"},"properties":{"area_sqkm":0.00801449,"evidence":0,"fcode":39004,"gnis_id":"00199421","hydro_category":"perennial","id":"nhd-72982256","name":"Christenson Reservoir","water_class":"lake_pond"},"type":"Feature"}],"layer_id":"water_bodies","type":"FeatureCollection"}
